{"type":"Feature","properties":{"name":"Venezuela","source":"dissolved from ADM1 states"},"geometry":{"type":"MultiPolygon","coordinates":[[[[-72.372,7.3975],[-72.4286,7.4024],[-72.4373,7.4121],[-72.4425,7.4225],[-72.4418,7.4455],[-72.4447,7.4474],[-72.4471,7.4619],[-72.4553,7.4697],[-72.4609,7.4812],[-72.4728,7.4843],[-72.478,7.4986],[-72.4729,7.5092],[-72.474,7.5197],[-72.4652,7.5365],[-72.4568,7.545],[-72.4525,7.5645],[-72.4565,7.5822],[-72.4653,7.5924],[-72.4715,7.6233],[-72.4758,7.6292],[-72.4737,7.641],[-72.477,7.6465],[-72.473,7.6518],[-72.4758,7.6564],[-72.4722,7.6699],[-72.4751,7.6919],[-72.4701,7.7067],[-72.4737,7.7585],[-72.4684,7.7747],[-72.4684,7.7954],[-72.4583,7.8029],[-72.447,7.8269],[-72.4515,7.8394],[-72.448,7.8446],[-72.4505,7.8519],[-72.4461,7.8535],[-72.4446,7.86],[-72.4489,7.8661],[-72.4489,7.8732],[-72.458,7.8847],[-72.4588,7.8911],[-72.4549,7.8959],[-72.4591,7.8967],[-72.4623,7.9077],[-72.4571,7.9112],[-72.4678,7.9201],[-72.4723,7.917],[-72.4775,7.9213],[-72.4768,7.9275],[-72.4799,7.9271],[-72.48,7.9305],[-72.4845,7.9263],[-72.4898,7.932],[-72.4878,7.9444],[-72.4746,7.9561],[-72.4747,7.9597],[-72.4583,7.966],[-72.4486,7.9636],[-72.4489,7.9698],[-72.4447,7.9738],[-72.4406,7.9726],[-72.444,7.9761],[-72.4401,7.9786],[-72.4427,7.9838],[-72.4371,7.9912],[-72.425,7.9898],[-72.4186,7.9956],[-72.4218,8.0085],[-72.4166,8.0111],[-72.4183,8.014],[-72.4116,8.0216],[-72.416,8.0334],[-72.3834,8.0345],[-72.3653,8.0178],[-72.3618,8.0102],[-72.3519,8.0046],[-72.3488,8.0051],[-72.3475,8.0187],[-72.355,8.0274],[-72.3464,8.0376],[-72.3514,8.0834],[-72.3533,8.0875],[-72.3705,8.0937],[-72.3735,8.1051],[-72.3666,8.1177],[-72.3587,8.1205],[-72.3637,8.1308],[-72.3614,8.1335],[-72.3645,8.1358],[-72.3661,8.1492],[-72.3561,8.1536],[-72.3532,8.1587],[-72.3611,8.1819],[-72.367,8.1841],[-72.3622,8.1912],[-72.3693,8.1905],[-72.3667,8.1927],[-72.3686,8.1962],[-72.3741,8.1952],[-72.3688,8.2008],[-72.3749,8.2052],[-72.3747,8.2143],[-72.3795,8.2189],[-72.3775,8.2234],[-72.3806,8.225],[-72.3835,8.2321],[-72.3815,8.2348],[-72.3864,8.2414],[-72.3806,8.2468],[-72.3858,8.2464],[-72.3859,8.2528],[-72.3937,8.2526],[-72.3905,8.2554],[-72.3927,8.2588],[-72.3899,8.2593],[-72.3845,8.2775],[-72.3882,8.2789],[-72.3861,8.2824],[-72.389,8.2864],[-72.3844,8.2898],[-72.3872,8.2913],[-72.3863,8.3032],[-72.38,8.3039],[-72.3824,8.3052],[-72.3801,8.3104],[-72.3814,8.3159],[-72.3922,8.3203],[-72.3954,8.3258],[-72.3915,8.3277],[-72.3951,8.3316],[-72.3922,8.3384],[-72.3951,8.3433],[-72.3879,8.3453],[-72.3887,8.3491],[-72.3937,8.3506],[-72.3925,8.3579],[-72.3992,8.3606],[-72.4028,8.3556],[-72.4041,8.3609],[-72.408,8.3603],[-72.4028,8.3642],[-72.4069,8.3673],[-72.4154,8.3637],[-72.4157,8.367],[-72.4086,8.3705],[-72.4093,8.3754],[-72.4209,8.383],[-72.4283,8.3818],[-72.5757,8.5409],[-72.5967,8.572],[-72.6171,8.5952],[-72.6323,8.5972],[-72.6318,8.6006],[-72.6259,8.6016],[-72.6288,8.6063],[-72.6337,8.6065],[-72.6347,8.6005],[-72.6389,8.6082],[-72.6548,8.6143],[-72.698,8.8064],[-72.7203,8.9411],[-72.747,9.0143],[-72.7632,9.0766],[-72.7608,9.0808],[-72.7637,9.0853],[-72.7733,9.0864],[-72.7629,9.0936],[-72.7668,9.0985],[-72.7747,9.0966],[-72.7756,9.1005],[-72.766,9.1004],[-72.7657,9.1055],[-72.7751,9.1035],[-72.7763,9.114],[-72.784,9.1153],[-72.7962,9.1034],[-72.7988,9.1091],[-72.7961,9.1213],[-72.8115,9.1199],[-72.8079,9.1294],[-72.8224,9.1415],[-72.8232,9.1219],[-72.8337,9.122],[-72.8464,9.1309],[-72.8696,9.1296],[-72.8812,9.1323],[-72.887,9.1143],[-72.8839,9.1114],[-72.8869,9.1036],[-72.8942,9.1037],[-72.8991,9.0974],[-72.9198,9.0934],[-72.9212,9.0885],[-72.9325,9.083],[-72.9379,9.0902],[-72.9484,9.0923],[-72.9514,9.0975],[-72.9478,9.1058],[-72.9597,9.1128],[-72.9725,9.1365],[-72.9872,9.1434],[-72.9725,9.1539],[-72.9646,9.1559],[-72.9624,9.1716],[-72.9555,9.1797],[-72.9625,9.1859],[-72.9645,9.1997],[-72.9709,9.2134],[-72.98,9.2164],[-72.9856,9.2221],[-72.9962,9.221],[-72.9956,9.2254],[-72.9878,9.2287],[-72.9879,9.244],[-72.9845,9.2523],[-72.995,9.2568],[-72.9948,9.2723],[-73.006,9.2759],[-73.0027,9.2856],[-73.0081,9.2907],[-73.021,9.2871],[-73.027,9.2797],[-73.0309,9.285],[-73.0359,9.2815],[-73.0409,9.2696],[-73.0441,9.2685],[-73.0426,9.262],[-73.0502,9.2584],[-73.0569,9.2628],[-73.064,9.2597],[-73.0709,9.2641],[-73.0768,9.2506],[-73.0728,9.243],[-73.0777,9.2387],[-73.0812,9.2403],[-73.0889,9.2258],[-73.1049,9.2312],[-73.1077,9.2289],[-73.117,9.2312],[-73.1218,9.2271],[-73.1301,9.2284],[-73.1366,9.2155],[-73.1522,9.21],[-73.1502,9.2007],[-73.1577,9.1945],[-73.1567,9.1921],[-73.1617,9.1916],[-73.177,9.1766],[-73.1929,9.1746],[-73.2057,9.1811],[-73.2087,9.178],[-73.2136,9.1832],[-73.2249,9.1752],[-73.2353,9.173],[-73.2396,9.1658],[-73.2427,9.1668],[-73.2509,9.1582],[-73.2524,9.1626],[-73.2552,9.1605],[-73.2731,9.1649],[-73.2805,9.1623],[-73.3006,9.1714],[-73.3169,9.1682],[-73.3396,9.1739],[-73.3586,9.1674],[-73.3691,9.1728],[-73.3664,9.185],[-73.362,9.1903],[-73.3648,9.1987],[-73.3584,9.2054],[-73.3562,9.2156],[-73.3513,9.2179],[-73.3333,9.2128],[-73.3267,9.2288],[-73.3215,9.2326],[-73.3164,9.2481],[-73.3058,9.2638],[-73.2984,9.2667],[-73.2956,9.2779],[-73.2978,9.2806],[-73.2913,9.2917],[-73.2887,9.3148],[-73.2827,9.3232],[-73.2787,9.3238],[-73.2736,9.3193],[-73.2647,9.3277],[-73.2593,9.3455],[-73.2628,9.3579],[-73.2612,9.3697],[-73.2457,9.3833],[-73.2412,9.3922],[-73.2411,9.4031],[-73.2237,9.4169],[-73.2212,9.4244],[-73.2074,9.4237],[-73.2022,9.4364],[-73.1873,9.447],[-73.1936,9.4587],[-73.2005,9.4617],[-73.2027,9.4698],[-73.1972,9.4766],[-73.1867,9.4754],[-73.174,9.4797],[-73.1723,9.4866],[-73.1767,9.5011],[-73.1669,9.5103],[-73.1645,9.5171],[-73.1584,9.5193],[-73.1451,9.5429],[-73.137,9.5498],[-73.1269,9.5552],[-73.1105,9.5537],[-73.1015,9.5571],[-73.0841,9.5574],[-73.0854,9.569],[-73.0813,9.5857],[-73.0741,9.6012],[-73.0677,9.6068],[-73.0776,9.6109],[-73.077,9.6204],[-73.0581,9.651],[-73.0611,9.6598],[-73.0551,9.6783],[-73.0401,9.6994],[-73.0359,9.7008],[-73.0342,9.7104],[-73.0278,9.7142],[-73.0284,9.7182],[-73.017,9.7342],[-73.0115,9.735],[-73.0059,9.7412],[-73.0049,9.7523],[-73.0003,9.759],[-73.003,9.7611],[-73.002,9.7649],[-72.9879,9.7941],[-72.9745,9.8033],[-72.9661,9.8178],[-72.9571,9.8212],[-72.9565,9.827],[-72.9503,9.8311],[-72.9509,9.8355],[-72.9457,9.8375],[-72.9435,9.8431],[-72.9503,9.8492],[-72.9712,9.8549],[-72.9721,9.8681],[-72.9933,9.8768],[-72.9772,9.889],[-72.9888,9.899],[-72.9836,9.9071],[-72.9858,9.9134],[-72.9815,9.9163],[-72.9934,9.9158],[-72.9992,9.9227],[-72.9941,9.9363],[-72.9889,9.9416],[-72.9865,9.9556],[-72.9804,9.9595],[-72.9836,9.9759],[-72.9756,9.9927],[-72.967,9.9959],[-72.9612,10.0069],[-72.9632,10.0175],[-72.9529,10.0268],[-72.9544,10.0456],[-72.959,10.0532],[-72.955,10.0574],[-72.9548,10.0658],[-72.9447,10.0714],[-72.9401,10.0825],[-72.9355,10.0817],[-72.9257,10.0922],[-72.922,10.1083],[-72.9114,10.1128],[-72.922,10.1381],[-72.9171,10.1609],[-72.9082,10.1756],[-72.9093,10.2051],[-72.8996,10.2087],[-72.8972,10.2179],[-72.903,10.2285],[-72.9007,10.2483],[-72.907,10.2682],[-72.9036,10.2791],[-72.9059,10.2863],[-72.9,10.2916],[-72.9005,10.3021],[-72.8961,10.3111],[-72.9065,10.3232],[-72.9047,10.3356],[-72.9079,10.3443],[-72.9064,10.3534],[-72.9007,10.3615],[-72.8924,10.3638],[-72.8925,10.3745],[-72.8858,10.3845],[-72.8873,10.3938],[-72.8997,10.3989],[-72.8985,10.4075],[-72.8942,10.4114],[-72.8968,10.4206],[-72.8949,10.4261],[-72.9007,10.4364],[-72.8927,10.4437],[-72.8917,10.451],[-72.8819,10.4551],[-72.8761,10.4537],[-72.8754,10.4573],[-72.8627,10.4634],[-72.8542,10.48],[-72.8448,10.485],[-72.8466,10.4933],[-72.8425,10.4983],[-72.8438,10.5075],[-72.8374,10.5105],[-72.8344,10.5185],[-72.843,10.5389],[-72.8355,10.5393],[-72.826,10.5481],[-72.8198,10.5702],[-72.7928,10.5885],[-72.7897,10.6041],[-72.7501,10.6341],[-72.7496,10.6519],[-72.7401,10.652],[-72.7384,10.6546],[-72.7394,10.6704],[-72.7341,10.6779],[-72.7297,10.6963],[-72.7159,10.7061],[-72.7193,10.722],[-72.7141,10.7339],[-72.7177,10.7393],[-72.7141,10.7415],[-72.7114,10.7521],[-72.7052,10.7584],[-72.6896,10.7571],[-72.6799,10.764],[-72.6828,10.7701],[-72.6782,10.7834],[-72.6825,10.7966],[-72.6754,10.8066],[-72.6753,10.8207],[-72.6686,10.8229],[-72.6619,10.8312],[-72.6634,10.8379],[-72.658,10.8514],[-72.6588,10.8573],[-72.655,10.8581],[-72.6498,10.8665],[-72.648,10.8804],[-72.6385,10.885],[-72.6204,10.887],[-72.6125,10.8826],[-72.6036,10.8978],[-72.5795,10.911],[-72.5533,10.941],[-72.5371,10.9749],[-72.5384,10.9796],[-72.535,10.9875],[-72.5185,11.0016],[-72.5253,11.0072],[-72.5261,11.0118],[-72.5193,11.0137],[-72.5175,11.0192],[-72.5087,11.0228],[-72.505,11.0379],[-72.4815,11.0594],[-72.4856,11.0625],[-72.4904,11.0781],[-72.4978,11.083],[-72.4976,11.0859],[-72.4905,11.089],[-72.4847,11.0991],[-72.4436,11.1277],[-72.4379,11.1153],[-72.4234,11.1258],[-72.4079,11.1264],[-72.3658,11.1394],[-72.3493,11.1514],[-72.3341,11.1482],[-72.3329,11.1444],[-72.3234,11.1469],[-72.3154,11.1442],[-72.2991,11.145],[-72.2721,11.1383],[-72.2493,11.1403],[-71.9714,11.6463],[-71.8022,11.68],[-71.611,11.7463],[-71.4816,11.7795],[-71.3784,11.8121],[-71.3732,11.8081],[-71.3517,11.8207],[-71.3514,11.8237],[-71.3573,11.8221],[-71.3581,11.8257],[-71.3539,11.8296],[-71.3474,11.8299],[-71.3434,11.8377],[-71.3316,11.8428],[-71.3394,11.8347],[-71.3447,11.8173],[-71.3394,11.7934],[-71.3507,11.7837],[-71.3675,11.779],[-71.376,11.7729],[-71.3809,11.772],[-71.3834,11.7758],[-71.3829,11.7704],[-71.3763,11.7704],[-71.3844,11.7499],[-71.3994,11.7495],[-71.4079,11.7414],[-71.4156,11.7461],[-71.4228,11.7447],[-71.4402,11.7199],[-71.4499,11.7202],[-71.4642,11.7126],[-71.4845,11.7076],[-71.5317,11.703],[-71.551,11.6937],[-71.5867,11.6924],[-71.6147,11.6851],[-71.6244,11.6891],[-71.6317,11.6881],[-71.6467,11.6795],[-71.6642,11.6798],[-71.723,11.6585],[-71.7613,11.6576],[-71.7883,11.6442],[-71.8134,11.6439],[-71.8212,11.6367],[-71.8399,11.6332],[-71.8447,11.6275],[-71.8549,11.6281],[-71.8585,11.6239],[-71.8814,11.6204],[-71.8985,11.6054],[-71.9443,11.5973],[-71.9582,11.5806],[-71.9657,11.5447],[-71.9692,11.5048],[-71.9642,11.4345],[-71.9527,11.388],[-71.9546,11.3817],[-71.9476,11.3736],[-71.9303,11.323],[-71.9007,11.2611],[-71.8758,11.2173],[-71.8417,11.1679],[-71.8154,11.1363],[-71.8071,11.1315],[-71.809,11.1305],[-71.785,11.1054],[-71.7633,11.0861],[-71.7437,11.0695],[-71.7108,11.0499],[-71.6621,11.031],[-71.6132,10.9891],[-71.6073,10.987],[-71.6124,10.9834],[-71.6195,10.9937],[-71.6248,10.9918],[-71.6349,10.9801],[-71.6467,10.9857],[-71.6452,10.99],[-71.6509,10.9893],[-71.6524,10.9809],[-71.6619,10.9758],[-71.6687,10.979],[-71.6753,10.9772],[-71.6651,10.9967],[-71.6725,10.995],[-71.6975,10.9981],[-71.7061,11.0047],[-71.7377,11.0183],[-71.7577,11.0122],[-71.7638,11.0143],[-71.7704,11.0018],[-71.7815,10.9999],[-71.7689,10.9919],[-71.7544,10.9922],[-71.7371,10.9687],[-71.7201,10.9536],[-71.7132,10.9381],[-71.7202,10.9236],[-71.7165,10.919],[-71.7188,10.9151],[-71.7155,10.8907],[-71.718,10.8898],[-71.715,10.8888],[-71.7052,10.8575],[-71.6758,10.8066],[-71.6778,10.8031],[-71.6754,10.7938],[-71.6664,10.7764],[-71.6324,10.7403],[-71.6343,10.7395],[-71.6344,10.7389],[-71.6302,10.7388],[-71.6276,10.735],[-71.6004,10.7164],[-71.6055,10.7164],[-71.6044,10.7138],[-71.5954,10.7139],[-71.5934,10.7087],[-71.5819,10.7011],[-71.5889,10.703],[-71.5934,10.6982],[-71.5923,10.6943],[-71.5983,10.6906],[-71.5881,10.674],[-71.5893,10.6701],[-71.5866,10.6699],[-71.59,10.6569],[-71.6031,10.6367],[-71.6135,10.6391],[-71.6175,10.6366],[-71.6157,10.6353],[-71.6186,10.6345],[-71.6152,10.6352],[-71.617,10.6319],[-71.6142,10.631],[-71.6103,10.619],[-71.6059,10.6168],[-71.6055,10.6089],[-71.6114,10.6047],[-71.6132,10.5962],[-71.6166,10.5967],[-71.6165,10.5957],[-71.6157,10.5958],[-71.6155,10.5942],[-71.6148,10.5936],[-71.6137,10.5942],[-71.6147,10.5921],[-71.6125,10.5918],[-71.6154,10.5915],[-71.6132,10.5906],[-71.616,10.5895],[-71.6158,10.586],[-71.6118,10.5834],[-71.6138,10.584],[-71.6119,10.5779],[-71.6094,10.5788],[-71.6118,10.5777],[-71.6105,10.5714],[-71.6127,10.5718],[-71.6107,10.5698],[-71.6156,10.566],[-71.6179,10.5582],[-71.6184,10.5463],[-71.6227,10.5387],[-71.6195,10.5369],[-71.6242,10.537],[-71.6335,10.5143],[-71.6294,10.5099],[-71.6345,10.5038],[-71.6345,10.4947],[-71.6279,10.4857],[-71.6277,10.4799],[-71.6373,10.4709],[-71.6321,10.4571],[-71.6333,10.4473],[-71.6296,10.4371],[-71.6388,10.4399],[-71.6591,10.4321],[-71.6612,10.4276],[-71.6642,10.4285],[-71.6825,10.4156],[-71.7034,10.3951],[-71.7329,10.3805],[-71.7818,10.337],[-71.792,10.3242],[-71.8071,10.2841],[-71.8194,10.2721],[-71.8277,10.2463],[-71.8388,10.2254],[-71.841,10.2104],[-71.8577,10.1982],[-71.865,10.1775],[-71.8728,10.1652],[-71.8828,10.1615],[-71.889,10.1525],[-71.903,10.1222],[-71.9348,10.1063],[-71.952,10.1016],[-71.9551,10.1039],[-71.9618,10.0961],[-71.9782,10.0869],[-71.9909,10.0729],[-72.008,10.0078],[-72.0148,9.9986],[-72.02,9.9805],[-72.026,9.9736],[-72.0414,9.9307],[-72.052,9.9126],[-72.0781,9.88],[-72.0855,9.8643],[-72.106,9.8474],[-72.1066,9.8496],[-72.1104,9.8366],[-72.1152,9.8351],[-72.1199,9.8394],[-72.12,9.8371],[-72.126,9.8366],[-72.1284,9.8267],[-72.1258,9.8204],[-72.1311,9.8145],[-72.1344,9.815],[-72.132,9.8052],[-72.1234,9.7969],[-72.1244,9.7929],[-72.12,9.7957],[-72.0903,9.7488],[-71.9874,9.6268],[-71.967,9.5892],[-71.965,9.5555],[-71.9539,9.5371],[-71.9319,9.5108],[-71.933,9.5089],[-71.9598,9.5418],[-71.965,9.5412],[-71.9639,9.5482],[-71.9793,9.5863],[-71.9871,9.5952],[-71.9917,9.596],[-71.9829,9.5872],[-71.9844,9.5791],[-71.9906,9.5727],[-71.9967,9.5808],[-72.005,9.5758],[-72.0079,9.5713],[-72.0083,9.5567],[-71.996,9.5542],[-71.9908,9.5588],[-71.9864,9.5579],[-71.9815,9.5656],[-71.9777,9.5643],[-71.9762,9.5626],[-71.9807,9.5571],[-71.9723,9.5468],[-71.9612,9.5174],[-71.9678,9.5194],[-71.9759,9.5079],[-71.9828,9.5047],[-71.9865,9.5064],[-71.9886,9.5148],[-71.9973,9.5109],[-71.9996,9.5142],[-72.0015,9.5085],[-71.996,9.5066],[-71.9935,9.5089],[-71.9733,9.5009],[-71.9673,9.5052],[-71.9653,9.5008],[-71.9602,9.5103],[-71.9547,9.5101],[-71.9557,9.5075],[-71.9524,9.511],[-71.9487,9.5058],[-71.9574,9.5031],[-71.9588,9.4993],[-71.9576,9.4905],[-71.9495,9.4912],[-71.9539,9.486],[-71.9678,9.4801],[-71.9783,9.4795],[-71.9806,9.4854],[-71.9921,9.4897],[-71.993,9.499],[-71.9984,9.4917],[-72.0065,9.4929],[-72.0063,9.5017],[-72.012,9.4973],[-72.0097,9.5124],[-72.0143,9.5151],[-72.0205,9.4939],[-72.0122,9.4851],[-72.0168,9.4786],[-72.0006,9.4527],[-72.0024,9.4472],[-71.9987,9.4417],[-71.9952,9.4414],[-72.0,9.4465],[-71.9999,9.4559],[-72.0039,9.4606],[-71.9807,9.457],[-71.9618,9.4655],[-71.9572,9.4785],[-71.9466,9.4856],[-71.9439,9.497],[-71.9393,9.4912],[-71.9375,9.496],[-71.9276,9.4784],[-71.9201,9.4725],[-71.9011,9.4675],[-71.9049,9.4719],[-71.8853,9.4568],[-71.8381,9.4338],[-71.85,9.4315],[-71.8591,9.437],[-71.8806,9.4351],[-71.8897,9.4304],[-71.8998,9.4153],[-71.8978,9.4099],[-71.9043,9.4083],[-71.913,9.395],[-71.9084,9.3865],[-71.8943,9.387],[-71.8897,9.4053],[-71.8807,9.4043],[-71.8742,9.3984],[-71.8718,9.4003],[-71.8843,9.4103],[-71.8868,9.4282],[-71.86,9.419],[-71.8601,9.4158],[-71.8563,9.4144],[-71.8363,9.4168],[-71.8321,9.4049],[-71.8257,9.4096],[-71.8308,9.4109],[-71.8337,9.4171],[-71.8311,9.4235],[-71.8273,9.4248],[-71.8074,9.41],[-71.8049,9.3985],[-71.8113,9.3771],[-71.8075,9.3638],[-71.8001,9.3537],[-71.8036,9.362],[-71.7954,9.3654],[-71.8037,9.3661],[-71.8035,9.371],[-71.7929,9.3729],[-71.7995,9.3794],[-71.7999,9.399],[-71.773,9.3629],[-71.7653,9.3569],[-71.7589,9.3562],[-71.7666,9.353],[-71.772,9.3425],[-71.7765,9.345],[-71.7829,9.3414],[-71.7768,9.3343],[-71.7679,9.3314],[-71.7621,9.3351],[-71.7655,9.3411],[-71.7597,9.3503],[-71.7635,9.3515],[-71.7499,9.3585],[-71.7419,9.3718],[-71.7211,9.3841],[-71.7142,9.384],[-71.7271,9.373],[-71.7278,9.3616],[-71.7352,9.3595],[-71.7398,9.3536],[-71.7296,9.3448],[-71.7264,9.3481],[-71.7236,9.3447],[-71.7197,9.3459],[-71.7187,9.3419],[-71.7256,9.3376],[-71.7304,9.3431],[-71.74,9.3448],[-71.7415,9.3378],[-71.7466,9.3328],[-71.7334,9.3237],[-71.7309,9.3139],[-71.7325,9.3028],[-71.7288,9.2858],[-71.7317,9.2833],[-71.7333,9.2875],[-71.7383,9.2874],[-71.7414,9.2844],[-71.7332,9.2714],[-71.7407,9.2692],[-71.7537,9.2849],[-71.7653,9.2905],[-71.7679,9.2838],[-71.775,9.288],[-71.7706,9.2799],[-71.7694,9.2651],[-71.7723,9.2564],[-71.7931,9.253],[-71.8162,9.2413],[-71.8112,9.2351],[-71.8173,9.2236],[-71.8052,9.221],[-71.7901,9.2391],[-71.7823,9.2323],[-71.7669,9.2036],[-71.7674,9.2145],[-71.7732,9.2203],[-71.7724,9.2237],[-71.7627,9.2262],[-71.7534,9.2372],[-71.7485,9.2352],[-71.7494,9.2285],[-71.746,9.2266],[-71.7515,9.2204],[-71.751,9.2057],[-71.7584,9.2005],[-71.7506,9.1879],[-71.7586,9.1958],[-71.7382,9.1606],[-71.7398,9.1496],[-71.7517,9.1302],[-71.7551,9.1371],[-71.7519,9.1399],[-71.7512,9.1475],[-71.7529,9.1495],[-71.7555,9.1464],[-71.7598,9.1524],[-71.7585,9.1505],[-71.757,9.1463],[-71.7593,9.1502],[-71.7611,9.1467],[-71.7563,9.144],[-71.7596,9.1417],[-71.7564,9.1423],[-71.7554,9.13],[-71.7594,9.1284],[-71.7564,9.1289],[-71.7554,9.1258],[-71.7581,9.1217],[-71.7617,9.1225],[-71.7596,9.1164],[-71.7656,9.1207],[-71.7621,9.117],[-71.7662,9.1165],[-71.7605,9.1138],[-71.7689,9.1143],[-71.7661,9.112],[-71.7794,9.1095],[-71.7759,9.109],[-71.7806,9.106],[-71.7678,9.1103],[-71.7703,9.103],[-71.7678,9.1093],[-71.7617,9.1114],[-71.7604,9.1089],[-71.7659,9.1029],[-71.7597,9.1066],[-71.7636,9.0986],[-71.7592,9.1073],[-71.7597,9.0989],[-71.7555,9.1014],[-71.7587,9.1114],[-71.7511,9.1108],[-71.7562,9.1139],[-71.752,9.1168],[-71.7414,9.099],[-71.7245,9.0916],[-71.7128,9.0945],[-71.7196,9.0811],[-71.7018,9.0616],[-71.691,9.0557],[-71.6886,9.0617],[-71.6834,9.0654],[-71.6787,9.0646],[-71.6684,9.0757],[-71.6572,9.0717],[-71.6518,9.0658],[-71.6535,9.0615],[-71.6649,9.0573],[-71.66,9.0489],[-71.652,9.0439],[-71.5916,9.036],[-71.5562,9.0368],[-71.4955,9.0434],[-71.381,9.0804],[-71.3553,9.0835],[-71.3282,9.0966],[-71.2834,9.129],[-71.2668,9.1293],[-71.238,9.1483],[-71.2237,9.1639],[-71.2195,9.1711],[-71.223,9.1767],[-71.221,9.186],[-71.2181,9.1869],[-71.2218,9.1864],[-71.2178,9.2021],[-71.2153,9.1989],[-71.2104,9.2031],[-71.1864,9.2349],[-71.1358,9.273],[-71.1047,9.2866],[-71.0883,9.3],[-71.0644,9.3111],[-71.0535,9.3302],[-71.0514,9.3406],[-71.0533,9.3548],[-71.0566,9.3625],[-71.0609,9.3608],[-71.0643,9.3655],[-71.0703,9.3653],[-71.0739,9.3845],[-71.0759,9.4079],[-71.0697,9.4549],[-71.0731,9.4858],[-71.0795,9.4896],[-71.092,9.482],[-71.0789,9.4961],[-71.0881,9.5254],[-71.0878,9.5419],[-71.0841,9.5451],[-71.0808,9.5582],[-71.0697,9.5717],[-71.0639,9.5872],[-71.0634,9.6125],[-71.0606,9.6231],[-71.052,9.6346],[-71.0503,9.6553],[-71.0455,9.668],[-71.0503,9.6855],[-71.0456,9.7023],[-71.0408,9.7034],[-71.0357,9.7114],[-71.0302,9.7087],[-71.0259,9.7107],[-71.0368,9.7404],[-71.0508,9.752],[-71.0541,9.7611],[-71.0778,9.7904],[-71.0895,9.8124],[-71.0885,9.8222],[-71.084,9.8294],[-71.0835,9.8211],[-71.0755,9.823],[-71.0779,9.8255],[-71.0774,9.8375],[-71.093,9.8738],[-71.1082,9.8976],[-71.1495,9.9483],[-71.1485,9.9515],[-71.1805,9.9695],[-71.2034,9.9687],[-71.2113,9.9721],[-71.2174,10.0021],[-71.2229,10.0145],[-71.2297,10.0144],[-71.225,10.0189],[-71.2367,10.0366],[-71.2386,10.0703],[-71.2675,10.1348],[-71.2927,10.1691],[-71.3353,10.1976],[-71.341,10.1963],[-71.3435,10.2039],[-71.3575,10.213],[-71.3665,10.2274],[-71.3707,10.2528],[-71.3777,10.2689],[-71.4093,10.3061],[-71.4149,10.3156],[-71.4217,10.3417],[-71.4313,10.3563],[-71.4519,10.3745],[-71.4552,10.3726],[-71.46,10.3827],[-71.4794,10.3918],[-71.4674,10.417],[-71.4679,10.426],[-71.4524,10.451],[-71.4585,10.4839],[-71.4727,10.5005],[-71.5099,10.5186],[-71.5249,10.5411],[-71.5419,10.55],[-71.5323,10.5599],[-71.5318,10.589],[-71.5111,10.6006],[-71.4975,10.6025],[-71.4957,10.6076],[-71.4989,10.6156],[-71.5102,10.6243],[-71.5318,10.6336],[-71.5219,10.6566],[-71.5338,10.6699],[-71.5223,10.695],[-71.531,10.7057],[-71.5247,10.7181],[-71.5247,10.7259],[-71.5351,10.7393],[-71.5387,10.7589],[-71.5634,10.7626],[-71.5625,10.7726],[-71.5661,10.7771],[-71.5931,10.7871],[-71.5922,10.7926],[-71.5867,10.7983],[-71.5727,10.7928],[-71.5601,10.7965],[-71.5136,10.7995],[-71.4832,10.7977],[-71.4533,10.7913],[-71.4322,10.796],[-71.4326,10.8221],[-71.4438,10.8532],[-71.4466,10.8773],[-71.4369,10.8838],[-71.4235,10.8856],[-71.417,10.892],[-71.4167,10.9027],[-71.41,10.9081],[-71.4077,10.9146],[-71.4261,10.901],[-71.4362,10.902],[-71.4399,10.9068],[-71.4385,10.9103],[-71.4435,10.9093],[-71.4529,10.9151],[-71.4569,10.9197],[-71.4557,10.9245],[-71.4595,10.9217],[-71.4699,10.931],[-71.4705,10.9332],[-71.4673,10.9334],[-71.4722,10.9355],[-71.4788,10.9486],[-71.4896,10.9471],[-71.4823,10.9511],[-71.4847,10.9512],[-71.4944,10.9472],[-71.503,10.9479],[-71.4989,10.9514],[-71.4712,10.9542],[-71.4644,10.9614],[-71.4036,10.9704],[-71.3669,10.9676],[-71.3375,10.9612],[-71.3172,10.9612],[-71.3097,10.9702],[-71.2309,10.9911],[-71.2107,11.0024],[-71.1868,11.0074],[-71.1753,11.0154],[-71.1506,11.0246],[-71.1352,11.0374],[-71.112,11.0491],[-71.074,11.0591],[-71.0679,11.0647],[-71.0744,11.061],[-71.0729,11.0673],[-71.0671,11.0722],[-71.0468,11.0804],[-71.0041,11.1075],[-70.949,11.1303],[-70.9326,11.1453],[-70.8442,11.1946],[-70.7839,11.2018],[-70.7688,11.2059],[-70.7589,11.2132],[-70.7312,11.2178],[-70.7134,11.2264],[-70.6733,11.2264],[-70.6642,11.2307],[-70.6159,11.2239],[-70.5839,11.2328],[-70.5511,11.229],[-70.532,11.2308],[-70.5146,11.2376],[-70.4915,11.2667],[-70.4886,11.2679],[-70.4916,11.2641],[-70.4857,11.2689],[-70.4813,11.2765],[-70.4975,11.2646],[-70.4867,11.2799],[-70.5037,11.268],[-70.5125,11.2423],[-70.514,11.2562],[-70.5119,11.2581],[-70.5126,11.2499],[-70.5092,11.2592],[-70.5114,11.2638],[-70.5135,11.2598],[-70.5125,11.2665],[-70.4964,11.2753],[-70.4882,11.2849],[-70.4748,11.2872],[-70.4712,11.2833],[-70.4632,11.2852],[-70.4426,11.2789],[-70.4228,11.2799],[-70.4011,11.2928],[-70.388,11.3048],[-70.3774,11.3083],[-70.3616,11.3084],[-70.3519,11.3151],[-70.3385,11.3162],[-70.3225,11.3244],[-70.3211,11.3173],[-70.3062,11.3351],[-70.2789,11.3515],[-70.2695,11.351],[-70.2457,11.3409],[-70.2124,11.3506],[-70.2066,11.3552],[-70.1947,11.3568],[-70.1819,11.3633],[-70.1788,11.3746],[-70.1697,11.3808],[-70.1635,11.4073],[-70.1553,11.4068],[-70.149,11.4118],[-70.1428,11.4241],[-70.1473,11.4232],[-70.1486,11.4278],[-70.1352,11.4411],[-70.1469,11.4346],[-70.1433,11.45],[-70.1392,11.4521],[-70.1331,11.4466],[-70.1325,11.4512],[-70.1366,11.4519],[-70.1358,11.4522],[-70.1327,11.4545],[-70.1408,11.4542],[-70.1359,11.4581],[-70.1417,11.4546],[-70.1434,11.457],[-70.1399,11.4659],[-70.1477,11.4646],[-70.1538,11.4681],[-70.1674,11.4638],[-70.1652,11.468],[-70.1488,11.4692],[-70.1371,11.467],[-70.1091,11.434],[-70.0975,11.4247],[-70.0833,11.4408],[-70.0855,11.4463],[-70.0894,11.4476],[-70.0855,11.4492],[-70.0632,11.4541],[-70.053,11.4391],[-70.0467,11.4365],[-70.035,11.4591],[-70.0293,11.4616],[-70.0357,11.46],[-70.0356,11.4689],[-70.0439,11.4706],[-70.0497,11.4688],[-70.0469,11.469],[-70.0488,11.4658],[-70.0544,11.4658],[-70.052,11.4764],[-70.0471,11.478],[-70.0428,11.4738],[-70.0401,11.4778],[-70.0329,11.4774],[-70.0192,11.4673],[-70.0173,11.475],[-70.0216,11.4845],[-70.0193,11.4882],[-70.0258,11.4879],[-70.0296,11.4926],[-70.049,11.4894],[-70.0439,11.5082],[-70.0546,11.5131],[-70.0708,11.5124],[-70.076,11.5065],[-70.0799,11.5064],[-70.0807,11.5099],[-70.0681,11.5195],[-70.0842,11.5117],[-70.086,11.5145],[-70.0782,11.5218],[-70.1107,11.5172],[-70.1234,11.5199],[-70.117,11.5217],[-70.1212,11.5269],[-70.1174,11.5304],[-70.1045,11.528],[-70.0809,11.5311],[-70.0956,11.5343],[-70.1044,11.5408],[-70.1118,11.5404],[-70.1185,11.5455],[-70.1155,11.5496],[-70.1294,11.5549],[-70.1394,11.5664],[-70.1245,11.5612],[-70.0969,11.5397],[-70.0738,11.5311],[-70.0471,11.5111],[-70.0283,11.5116],[-70.0047,11.5183],[-69.9985,11.5128],[-69.993,11.5146],[-69.9817,11.4925],[-69.9707,11.4934],[-69.9659,11.4848],[-69.9349,11.4927],[-69.9339,11.4993],[-69.9211,11.5068],[-69.9164,11.5024],[-69.9181,11.4949],[-69.912,11.494],[-69.8979,11.507],[-69.8929,11.5082],[-69.8863,11.4941],[-69.8945,11.4794],[-69.8964,11.4537],[-69.8784,11.4355],[-69.8541,11.428],[-69.8458,11.4225],[-69.8277,11.4237],[-69.8158,11.4195],[-69.8042,11.4261],[-69.792,11.426],[-69.7851,11.4317],[-69.789,11.437],[-69.7858,11.4443],[-69.745,11.4667],[-69.7488,11.4684],[-69.7331,11.4784],[-69.7402,11.4811],[-69.7234,11.4903],[-69.7258,11.491],[-69.7238,11.4943],[-69.7337,11.4963],[-69.7254,11.503],[-69.733,11.5033],[-69.725,11.5114],[-69.7363,11.5133],[-69.7393,11.5204],[-69.7456,11.5243],[-69.7457,11.5324],[-69.7554,11.5404],[-69.7503,11.5491],[-69.7505,11.559],[-69.7581,11.5617],[-69.7661,11.574],[-69.7607,11.59],[-69.7664,11.6119],[-69.7721,11.616],[-69.7714,11.6193],[-69.7786,11.6293],[-69.7783,11.6385],[-69.785,11.6447],[-69.785,11.6512],[-69.7991,11.6731],[-69.798,11.6788],[-69.8035,11.6849],[-69.8008,11.6891],[-69.8071,11.6931],[-69.8147,11.6816],[-69.8216,11.6771],[-69.8346,11.6842],[-69.8367,11.6883],[-69.8334,11.6853],[-69.8334,11.6888],[-69.8411,11.6924],[-69.8518,11.6832],[-69.8617,11.6812],[-69.8663,11.6724],[-69.8613,11.671],[-69.8661,11.6697],[-69.8709,11.6622],[-69.875,11.6677],[-69.8781,11.6653],[-69.8973,11.6664],[-69.8918,11.6727],[-69.8983,11.6719],[-69.9064,11.6619],[-69.9125,11.6613],[-69.9254,11.6475],[-69.9299,11.6531],[-69.9404,11.6549],[-69.9476,11.6603],[-69.9328,11.6621],[-69.9403,11.6711],[-69.9555,11.663],[-69.9612,11.6665],[-69.9667,11.6606],[-69.9697,11.6623],[-69.9811,11.6572],[-69.9985,11.6573],[-70.0234,11.6448],[-70.0401,11.6401],[-70.0413,11.6422],[-70.1109,11.6197],[-70.1272,11.6163],[-70.1408,11.6175],[-70.1852,11.604],[-70.1894,11.606],[-70.2061,11.6034],[-70.2254,11.6083],[-70.2262,11.6184],[-70.2307,11.6189],[-70.2363,11.6299],[-70.2365,11.6358],[-70.2212,11.6633],[-70.2149,11.6673],[-70.2142,11.673],[-70.2185,11.6917],[-70.2235,11.697],[-70.2182,11.6953],[-70.2124,11.6984],[-70.2097,11.707],[-70.2151,11.7184],[-70.2216,11.7139],[-70.2262,11.7307],[-70.2351,11.7381],[-70.2258,11.7439],[-70.2272,11.7359],[-70.2229,11.7283],[-70.2197,11.7271],[-70.212,11.7339],[-70.21,11.7254],[-70.2042,11.7272],[-70.201,11.7338],[-70.2019,11.7405],[-70.2124,11.7447],[-70.2045,11.7552],[-70.2049,11.7604],[-70.2062,11.7649],[-70.21,11.7724],[-70.2148,11.7782],[-70.2192,11.778],[-70.2266,11.7814],[-70.2379,11.7771],[-70.2387,11.769],[-70.2318,11.7624],[-70.2389,11.7573],[-70.2408,11.7698],[-70.2454,11.7734],[-70.2502,11.79],[-70.2531,11.7911],[-70.2611,11.8178],[-70.2732,11.82],[-70.2788,11.814],[-70.2775,11.8258],[-70.2826,11.8363],[-70.2803,11.8499],[-70.2836,11.8584],[-70.292,11.8612],[-70.3006,11.8531],[-70.289,11.8725],[-70.2919,11.8894],[-70.2893,11.9072],[-70.2814,11.9259],[-70.2738,11.9328],[-70.27,11.9442],[-70.2572,11.9612],[-70.2591,11.9696],[-70.2568,11.9821],[-70.2356,12.02],[-70.2176,12.0435],[-70.2094,12.0668],[-70.2105,12.0744],[-70.2194,12.0804],[-70.2162,12.0909],[-70.2002,12.1018],[-70.1878,12.1037],[-70.1739,12.1003],[-70.1497,12.1041],[-70.1463,12.1095],[-70.1259,12.1199],[-70.1163,12.1344],[-70.104,12.1412],[-70.0988,12.148],[-70.0692,12.1648],[-70.0706,12.1709],[-70.0597,12.1723],[-70.0546,12.178],[-70.0267,12.1899],[-70.0243,12.1942],[-70.0071,12.1916],[-70.0015,12.1951],[-69.9843,12.1796],[-69.9667,12.1728],[-69.9571,12.1755],[-69.9454,12.1751],[-69.9375,12.1704],[-69.9349,12.1727],[-69.9007,12.1449],[-69.8932,12.135],[-69.8823,12.1075],[-69.883,12.1017],[-69.8727,12.0918],[-69.8756,12.0855],[-69.8678,12.0827],[-69.858,12.0677],[-69.8513,12.0525],[-69.8518,12.045],[-69.8361,12.0291],[-69.8377,12.0239],[-69.8332,12.0205],[-69.8339,12.0107],[-69.8218,11.9986],[-69.8198,11.9714],[-69.8147,11.9544],[-69.8096,11.9449],[-69.8043,11.943],[-69.8027,11.9473],[-69.7967,11.9396],[-69.7964,11.936],[-69.8021,11.9406],[-69.8063,11.9379],[-69.8125,11.9202],[-69.8141,11.8999],[-69.8111,11.875],[-69.7875,11.7744],[-69.7453,11.6584],[-69.7188,11.595],[-69.6884,11.5422],[-69.6544,11.4961],[-69.6281,11.4704],[-69.6005,11.4577],[-69.5747,11.4558],[-69.5665,11.4725],[-69.5585,11.4809],[-69.5332,11.4992],[-69.5153,11.506],[-69.4603,11.5013],[-69.4405,11.4938],[-69.426,11.4936],[-69.3964,11.4843],[-69.3685,11.4826],[-69.3323,11.5012],[-69.3203,11.5117],[-69.2862,11.5272],[-69.2824,11.5349],[-69.2661,11.5348],[-69.2293,11.5096],[-69.2208,11.5104],[-69.2028,11.5033],[-69.1959,11.51],[-69.1844,11.5112],[-69.1556,11.4924],[-69.1333,11.491],[-69.1191,11.4846],[-69.1123,11.4854],[-69.1123,11.491],[-69.1076,11.4932],[-69.0978,11.4859],[-69.0691,11.451],[-69.0536,11.4398],[-69.0395,11.442],[-69.0232,11.4353],[-69.0089,11.4423],[-68.9873,11.4338],[-68.9802,11.4392],[-68.9694,11.4382],[-68.9687,11.4414],[-68.9483,11.4502],[-68.9337,11.4443],[-68.9098,11.4475],[-68.8898,11.4413],[-68.8838,11.4494],[-68.8753,11.4458],[-68.8693,11.4498],[-68.8591,11.4504],[-68.8419,11.4386],[-68.8303,11.4434],[-68.7923,11.3958],[-68.7663,11.3731],[-68.7442,11.3655],[-68.7342,11.3539],[-68.7215,11.3466],[-68.7046,11.3409],[-68.6933,11.3422],[-68.6894,11.3553],[-68.6712,11.3468],[-68.6649,11.3486],[-68.6536,11.3406],[-68.6022,11.2822],[-68.5929,11.2819],[-68.5855,11.2755],[-68.5718,11.272],[-68.5586,11.2747],[-68.5461,11.2657],[-68.5396,11.2681],[-68.5315,11.2647],[-68.518,11.2523],[-68.4951,11.2182],[-68.4478,11.1749],[-68.4155,11.1718],[-68.408,11.181],[-68.4106,11.1901],[-68.3942,11.1785],[-68.3796,11.1606],[-68.3821,11.1588],[-68.3868,11.1615],[-68.3916,11.157],[-68.3916,11.1443],[-68.3728,11.1101],[-68.3393,11.0605],[-68.3103,10.9873],[-68.2817,10.9448],[-68.2706,10.9351],[-68.2676,10.9273],[-68.2736,10.9236],[-68.2724,10.9128],[-68.2619,10.9074],[-68.265,10.9045],[-68.2795,10.9038],[-68.2926,10.9179],[-68.2958,10.917],[-68.2935,10.9188],[-68.2892,10.9165],[-68.2859,10.9243],[-68.3094,10.931],[-68.318,10.937],[-68.3444,10.93],[-68.3531,10.9331],[-68.3624,10.9315],[-68.3637,10.9192],[-68.3569,10.918],[-68.3483,10.9058],[-68.3208,10.9154],[-68.3145,10.9085],[-68.2652,10.895],[-68.2574,10.8943],[-68.2551,10.8979],[-68.2535,10.8942],[-68.2513,10.9037],[-68.2547,10.9055],[-68.2533,10.9111],[-68.2608,10.9187],[-68.2529,10.9192],[-68.2474,10.9129],[-68.2512,10.9098],[-68.2509,10.9051],[-68.2407,10.8905],[-68.2247,10.8859],[-68.2257,10.8828],[-68.2278,10.8851],[-68.2322,10.8849],[-68.2269,10.8819],[-68.227,10.8737],[-68.2263,10.8775],[-68.2221,10.8693],[-68.2274,10.8714],[-68.2259,10.8678],[-68.2311,10.8633],[-68.2233,10.8675],[-68.2201,10.8659],[-68.222,10.8635],[-68.2179,10.8576],[-68.2267,10.8589],[-68.2274,10.8542],[-68.2237,10.8539],[-68.2403,10.85],[-68.251,10.855],[-68.2579,10.8507],[-68.2659,10.8543],[-68.2744,10.8467],[-68.2799,10.8483],[-68.2761,10.8535],[-68.2809,10.8578],[-68.3029,10.8569],[-68.3021,10.8517],[-68.295,10.8453],[-68.2859,10.8482],[-68.2924,10.8418],[-68.3077,10.8551],[-68.3091,10.8529],[-68.3045,10.8472],[-68.3128,10.8502],[-68.3136,10.8568],[-68.3174,10.856],[-68.3152,10.8512],[-68.3222,10.8553],[-68.3256,10.8535],[-68.321,10.8473],[-68.3129,10.846],[-68.314,10.843],[-68.3072,10.8443],[-68.3117,10.8397],[-68.3021,10.8423],[-68.3042,10.8403],[-68.2928,10.8289],[-68.2967,10.8213],[-68.3168,10.8352],[-68.3247,10.832],[-68.3174,10.8312],[-68.3032,10.8216],[-68.304,10.8155],[-68.3081,10.8128],[-68.3223,10.8224],[-68.3239,10.8187],[-68.3237,10.8074],[-68.3134,10.7927],[-68.3237,10.7816],[-68.324,10.7691],[-68.3168,10.7386],[-68.2976,10.6859],[-68.2689,10.6252],[-68.2258,10.5642],[-68.1682,10.5021],[-68.159,10.4979],[-68.1558,10.5013],[-68.1353,10.4848],[-68.1245,10.4849],[-68.1249,10.4883],[-68.1237,10.4885],[-68.123,10.4932],[-68.1219,10.4945],[-68.1228,10.4885],[-68.1068,10.48],[-68.0887,10.4949],[-68.08,10.4921],[-68.0737,10.4981],[-68.0673,10.4956],[-68.0609,10.4978],[-68.0405,10.4832],[-68.0212,10.474],[-68.0118,10.4748],[-68.0094,10.4818],[-68.0003,10.4807],[-68.0053,10.4763],[-67.9979,10.4753],[-68.0018,10.4681],[-67.9936,10.4739],[-67.9864,10.4642],[-67.9833,10.4646],[-67.9853,10.4723],[-67.9924,10.48],[-67.993,10.479],[-67.993,10.4791],[-67.9944,10.4803],[-67.9945,10.4805],[-67.9947,10.4886],[-67.9996,10.4892],[-67.9997,10.487],[-68.0021,10.4846],[-68.008,10.4892],[-68.0052,10.4845],[-68.0097,10.4857],[-68.0081,10.483],[-68.011,10.4833],[-68.0092,10.4906],[-67.9958,10.4922],[-67.9857,10.4844],[-67.9814,10.4861],[-67.9849,10.4904],[-67.9739,10.4859],[-67.9496,10.461],[-67.9316,10.472],[-67.9326,10.4635],[-67.9229,10.4535],[-67.9005,10.4747],[-67.9018,10.4654],[-67.8984,10.4642],[-67.8964,10.4677],[-67.8992,10.4709],[-67.8939,10.4675],[-67.8871,10.4749],[-67.8837,10.4706],[-67.8769,10.4733],[-67.8752,10.4779],[-67.8688,10.4742],[-67.8563,10.4781],[-67.8534,10.4635],[-67.8566,10.4455],[-67.8419,10.4427],[-67.8392,10.4374],[-67.836,10.4412],[-67.8426,10.4442],[-67.8446,10.4524],[-67.8383,10.4746],[-67.8341,10.4818],[-67.8257,10.4797],[-67.8232,10.4854],[-67.8191,10.4829],[-67.816,10.4848],[-67.8095,10.4797],[-67.8108,10.4677],[-67.805,10.4704],[-67.8064,10.4786],[-67.8016,10.488],[-67.7879,10.4868],[-67.7799,10.4905],[-67.7643,10.4885],[-67.7615,10.4924],[-67.7636,10.4946],[-67.756,10.495],[-67.7526,10.4987],[-67.7431,10.4992],[-67.7443,10.4948],[-67.7396,10.4926],[-67.7345,10.4942],[-67.7322,10.4989],[-67.7169,10.4983],[-67.7092,10.5034],[-67.6945,10.5014],[-67.6892,10.4972],[-67.6689,10.4994],[-67.6626,10.4968],[-67.6448,10.5022],[-67.6178,10.5028],[-67.6043,10.5127],[-67.5985,10.5124],[-67.5956,10.5068],[-67.5832,10.5078],[-67.5765,10.5102],[-67.5693,10.5181],[-67.5602,10.5155],[-67.5563,10.5218],[-67.5436,10.5196],[-67.5422,10.524],[-67.5351,10.5262],[-67.5138,10.5217],[-67.5074,10.5275],[-67.5015,10.5265],[-67.4992,10.5307],[-67.4868,10.5302],[-67.4749,10.5347],[-67.4743,10.5322],[-67.4713,10.5365],[-67.4601,10.531],[-67.4199,10.5348],[-67.4004,10.5335],[-67.4006,10.5297],[-67.3979,10.5334],[-67.3768,10.5343],[-67.3497,10.5431],[-67.3433,10.5389],[-67.3421,10.5441],[-67.3113,10.5401],[-67.2876,10.547],[-67.2622,10.5459],[-67.2528,10.5501],[-67.2446,10.549],[-67.2395,10.5506],[-67.2371,10.5555],[-67.2352,10.5524],[-67.2178,10.5505],[-67.2123,10.5512],[-67.2076,10.5566],[-67.1855,10.5549],[-67.1716,10.5602],[-67.1608,10.5597],[-67.1432,10.5659],[-67.142,10.5695],[-67.1349,10.5682],[-67.1209,10.5717],[-67.1,10.5815],[-67.0938,10.5793],[-67.0833,10.5848],[-67.0832,10.5887],[-67.078,10.5883],[-67.079,10.5903],[-67.0768,10.5868],[-67.0508,10.5945],[-67.04,10.6005],[-67.0378,10.6042],[-67.0386,10.6058],[-67.0309,10.6108],[-67.0164,10.6148],[-67.0162,10.6146],[-67.0163,10.6146],[-67.0166,10.6143],[-67.0163,10.6139],[-67.0172,10.6132],[-67.0149,10.6128],[-67.0149,10.6153],[-67.0171,10.6157],[-67.0172,10.616],[-67.0075,10.6138],[-67.0016,10.6098],[-67.0,10.6127],[-66.9957,10.6106],[-66.9881,10.6146],[-66.9892,10.6125],[-66.9824,10.6088],[-66.9812,10.6107],[-66.9802,10.6072],[-66.9712,10.6074],[-66.9592,10.5998],[-66.9539,10.6025],[-66.9446,10.6021],[-66.9458,10.5989],[-66.9424,10.6009],[-66.9446,10.5988],[-66.9363,10.5994],[-66.9382,10.6011],[-66.9347,10.6024],[-66.9393,10.6025],[-66.9453,10.6042],[-66.9512,10.6077],[-66.9389,10.6031],[-66.9277,10.6022],[-66.9159,10.6062],[-66.9074,10.6024],[-66.8867,10.6123],[-66.8767,10.6092],[-66.8711,10.6129],[-66.8644,10.6122],[-66.8496,10.621],[-66.845,10.6205],[-66.8432,10.6169],[-66.8407,10.6165],[-66.8448,10.6215],[-66.8312,10.6133],[-66.8053,10.6098],[-66.7707,10.6135],[-66.7692,10.6138],[-66.7666,10.6164],[-66.7493,10.6158],[-66.7459,10.6183],[-66.7466,10.6188],[-66.7465,10.6195],[-66.7447,10.6199],[-66.7464,10.6225],[-66.7484,10.6207],[-66.7463,10.6232],[-66.7383,10.6252],[-66.7248,10.6189],[-66.7191,10.6209],[-66.7177,10.625],[-66.7169,10.6238],[-66.7123,10.6234],[-66.7118,10.6241],[-66.7077,10.6212],[-66.701,10.6214],[-66.693,10.6237],[-66.6824,10.624],[-66.6669,10.6217],[-66.6266,10.6268],[-66.6085,10.6255],[-66.5692,10.6296],[-66.562,10.6269],[-66.495,10.6322],[-66.4773,10.6287],[-66.4709,10.6314],[-66.4597,10.6282],[-66.4541,10.6304],[-66.4394,10.6257],[-66.4164,10.6312],[-66.3839,10.6217],[-66.3681,10.6112],[-66.3492,10.6066],[-66.3159,10.6168],[-66.2993,10.6409],[-66.2584,10.6499],[-66.2359,10.6489],[-66.1733,10.6083],[-66.1699,10.6104],[-66.1363,10.599],[-66.1299,10.6013],[-66.117,10.5922],[-66.1042,10.5908],[-66.076,10.5764],[-66.0687,10.5756],[-66.0615,10.5795],[-66.0628,10.5881],[-66.056,10.5848],[-66.0541,10.5801],[-66.0493,10.5802],[-66.0467,10.5694],[-66.0544,10.5654],[-66.0586,10.5536],[-66.0717,10.5452],[-66.0796,10.5454],[-66.0889,10.5353],[-66.0926,10.5353],[-66.092,10.5452],[-66.0952,10.5405],[-66.0983,10.5458],[-66.1013,10.5418],[-66.0941,10.5363],[-66.0992,10.5299],[-66.1037,10.5349],[-66.1001,10.5341],[-66.1037,10.5439],[-66.1034,10.5407],[-66.106,10.5385],[-66.1065,10.5469],[-66.1091,10.5434],[-66.1165,10.5462],[-66.1151,10.5417],[-66.1179,10.5389],[-66.1237,10.5411],[-66.1257,10.5371],[-66.1198,10.5351],[-66.1256,10.53],[-66.1247,10.5297],[-66.1268,10.5257],[-66.1265,10.5253],[-66.1272,10.5202],[-66.127,10.5168],[-66.1246,10.5242],[-66.1207,10.5201],[-66.1219,10.5106],[-66.1202,10.512],[-66.1181,10.5076],[-66.1258,10.505],[-66.1187,10.5048],[-66.1116,10.4887],[-66.1091,10.488],[-66.1106,10.4923],[-66.1084,10.4898],[-66.1074,10.4897],[-66.1064,10.4904],[-66.1094,10.4917],[-66.1093,10.4959],[-66.1114,10.4927],[-66.1164,10.4996],[-66.1171,10.5057],[-66.1163,10.5055],[-66.1161,10.5023],[-66.1146,10.4995],[-66.1137,10.4991],[-66.1129,10.4993],[-66.1118,10.5002],[-66.1118,10.5009],[-66.1149,10.5003],[-66.1158,10.5053],[-66.1127,10.503],[-66.116,10.5133],[-66.1168,10.5059],[-66.1202,10.5146],[-66.1171,10.5153],[-66.1201,10.5164],[-66.1195,10.5341],[-66.1125,10.5374],[-66.1148,10.5359],[-66.1149,10.5336],[-66.112,10.5361],[-66.1114,10.5356],[-66.1124,10.5342],[-66.1073,10.5312],[-66.1129,10.5308],[-66.1158,10.5224],[-66.1102,10.5],[-66.1019,10.4886],[-66.0967,10.4888],[-66.0966,10.4919],[-66.0944,10.49],[-66.0972,10.4863],[-66.096,10.4795],[-66.0731,10.4515],[-66.0513,10.4306],[-65.9921,10.3936],[-65.9448,10.3533],[-65.877,10.3067],[-65.875,10.3024],[-65.8744,10.3049],[-65.7772,10.2562],[-65.6858,10.2188],[-65.5979,10.1868],[-65.4993,10.1571],[-65.3818,10.1278],[-65.1934,10.098],[-65.1208,10.0713],[-65.084,10.0633],[-65.0525,10.0609],[-65.0282,10.0709],[-64.9923,10.0774],[-64.9492,10.0983],[-64.8848,10.0852],[-64.8383,10.0847],[-64.8071,10.0875],[-64.7612,10.1003],[-64.7341,10.1153],[-64.7143,10.1369],[-64.7153,10.1419],[-64.7081,10.1573],[-64.7119,10.1697],[-64.7006,10.1791],[-64.6963,10.1942],[-64.6991,10.2024],[-64.7064,10.2023],[-64.7035,10.2042],[-64.7074,10.205],[-64.7071,10.2022],[-64.7138,10.2086],[-64.707,10.225],[-64.7066,10.2066],[-64.6781,10.2028],[-64.6612,10.2083],[-64.6623,10.2089],[-64.6649,10.2079],[-64.6679,10.2075],[-64.6684,10.2078],[-64.6624,10.2092],[-64.6585,10.2085],[-64.6541,10.2111],[-64.6552,10.2136],[-64.6532,10.2112],[-64.6436,10.2155],[-64.644,10.218],[-64.6426,10.2163],[-64.6418,10.2169],[-64.6425,10.2208],[-64.6353,10.226],[-64.6365,10.2286],[-64.6333,10.2288],[-64.6346,10.2397],[-64.6136,10.2425],[-64.6153,10.2464],[-64.6076,10.2485],[-64.6078,10.2499],[-64.6087,10.2513],[-64.6126,10.2523],[-64.6191,10.2484],[-64.6286,10.2503],[-64.6239,10.2545],[-64.6077,10.2532],[-64.601,10.2572],[-64.598,10.2554],[-64.5983,10.251],[-64.6044,10.246],[-64.6019,10.2476],[-64.5883,10.2425],[-64.5864,10.2452],[-64.5923,10.2546],[-64.5809,10.2564],[-64.5778,10.2528],[-64.5833,10.2431],[-64.5809,10.2409],[-64.5776,10.2427],[-64.5816,10.24],[-64.5808,10.2379],[-64.5776,10.2374],[-64.5574,10.2429],[-64.5582,10.2491],[-64.5475,10.2536],[-64.5462,10.2418],[-64.5409,10.2372],[-64.5365,10.2431],[-64.5277,10.2452],[-64.5329,10.2504],[-64.5307,10.2533],[-64.5014,10.2479],[-64.4942,10.2413],[-64.4834,10.2424],[-64.4631,10.2545],[-64.459,10.254],[-64.4556,10.2575],[-64.458,10.2624],[-64.4472,10.2643],[-64.4487,10.2674],[-64.4441,10.2715],[-64.4509,10.279],[-64.44,10.2779],[-64.4374,10.2826],[-64.4312,10.2803],[-64.4221,10.2868],[-64.4031,10.2835],[-64.4002,10.2908],[-64.3813,10.2981],[-64.3804,10.3063],[-64.3772,10.3064],[-64.3748,10.3018],[-64.3682,10.3013],[-64.3643,10.3054],[-64.3646,10.311],[-64.3699,10.3127],[-64.368,10.317],[-64.3765,10.3212],[-64.3841,10.3194],[-64.386,10.3159],[-64.3915,10.3175],[-64.3925,10.3136],[-64.3977,10.3182],[-64.4019,10.314],[-64.4067,10.3162],[-64.4076,10.3107],[-64.4155,10.3163],[-64.4182,10.309],[-64.4224,10.319],[-64.432,10.3167],[-64.4319,10.3129],[-64.434,10.3151],[-64.4417,10.3135],[-64.443,10.3107],[-64.4478,10.319],[-64.453,10.3156],[-64.4586,10.3169],[-64.4568,10.3249],[-64.4622,10.3292],[-64.4617,10.3339],[-64.4579,10.3354],[-64.4479,10.3238],[-64.4404,10.3272],[-64.4419,10.3217],[-64.438,10.3181],[-64.4266,10.3201],[-64.4217,10.3241],[-64.4216,10.3301],[-64.4108,10.3302],[-64.4088,10.3338],[-64.4035,10.3347],[-64.3991,10.3313],[-64.3929,10.3381],[-64.3887,10.3354],[-64.3788,10.3368],[-64.3745,10.3479],[-64.3835,10.3507],[-64.3803,10.3554],[-64.3862,10.3563],[-64.3901,10.3615],[-64.3773,10.365],[-64.3779,10.3688],[-64.3923,10.3751],[-64.395,10.3799],[-64.3842,10.3839],[-64.3789,10.393],[-64.3759,10.3924],[-64.376,10.3847],[-64.3724,10.3834],[-64.3724,10.388],[-64.3627,10.3932],[-64.3674,10.3955],[-64.3647,10.3981],[-64.3532,10.3965],[-64.3582,10.3938],[-64.3516,10.3854],[-64.3467,10.3891],[-64.349,10.3758],[-64.3461,10.3722],[-64.352,10.366],[-64.3507,10.3612],[-64.3588,10.36],[-64.3633,10.3553],[-64.3584,10.3516],[-64.371,10.347],[-64.3674,10.3422],[-64.3691,10.3374],[-64.3646,10.3338],[-64.3559,10.3442],[-64.3517,10.3415],[-64.3477,10.347],[-64.3367,10.348],[-64.3398,10.3537],[-64.3438,10.3546],[-64.3396,10.3585],[-64.3447,10.3632],[-64.3414,10.3693],[-64.3388,10.3655],[-64.3363,10.3669],[-64.3395,10.3697],[-64.3372,10.3722],[-64.3451,10.3815],[-64.3422,10.3828],[-64.3362,10.3788],[-64.3281,10.3858],[-64.339,10.3852],[-64.341,10.3894],[-64.3351,10.3925],[-64.3318,10.3994],[-64.3371,10.3987],[-64.3287,10.4021],[-64.3213,10.399],[-64.3173,10.4071],[-64.31,10.4102],[-64.2953,10.4088],[-64.2987,10.4043],[-64.2969,10.4027],[-64.2894,10.4105],[-64.2845,10.4093],[-64.279,10.4137],[-64.2328,10.4134],[-64.2228,10.4169],[-64.1956,10.4445],[-64.1907,10.4547],[-64.1914,10.4615],[-64.1943,10.4603],[-64.191,10.4623],[-64.1932,10.4639],[-64.1922,10.464],[-64.1922,10.4645],[-64.1922,10.465],[-64.1914,10.4657],[-64.1936,10.4658],[-64.1919,10.4667],[-64.1919,10.4668],[-64.1919,10.4669],[-64.1924,10.467],[-64.1926,10.4676],[-64.192,10.4681],[-64.1934,10.4681],[-64.1934,10.4683],[-64.1891,10.4751],[-64.1927,10.4737],[-64.1869,10.4785],[-64.1842,10.477],[-64.1858,10.4795],[-64.1598,10.478],[-64.1504,10.473],[-64.1281,10.476],[-64.1174,10.4719],[-64.1136,10.4773],[-64.1189,10.4776],[-64.1141,10.4793],[-64.0889,10.4495],[-64.0386,10.4388],[-64.0368,10.4436],[-64.0317,10.4447],[-64.0248,10.4354],[-64.0203,10.4406],[-64.0131,10.4399],[-64.0025,10.4458],[-63.9835,10.4439],[-63.9792,10.4474],[-63.9713,10.4436],[-63.9541,10.4534],[-63.9411,10.451],[-63.9416,10.4462],[-63.9368,10.4503],[-63.9354,10.4479],[-63.9149,10.4482],[-63.9062,10.4547],[-63.8916,10.4451],[-63.8552,10.4413],[-63.8423,10.4481],[-63.8382,10.4472],[-63.8334,10.4399],[-63.8265,10.4411],[-63.8226,10.4386],[-63.8138,10.4451],[-63.8088,10.4412],[-63.798,10.4402],[-63.7843,10.4439],[-63.7779,10.4491],[-63.7565,10.4533],[-63.7555,10.4592],[-63.7427,10.4584],[-63.7407,10.4634],[-63.7352,10.4618],[-63.7346,10.4659],[-63.7222,10.4613],[-63.7096,10.4643],[-63.7069,10.4681],[-63.6995,10.4651],[-63.6847,10.4708],[-63.6803,10.4682],[-63.6593,10.4761],[-63.655,10.4804],[-63.6622,10.4776],[-63.6567,10.4828],[-63.6591,10.4875],[-63.6416,10.4895],[-63.6523,10.4961],[-63.6679,10.4923],[-63.6624,10.4964],[-63.6652,10.4968],[-63.6684,10.4927],[-63.6731,10.4947],[-63.6724,10.491],[-63.6687,10.492],[-63.6759,10.4877],[-63.7037,10.4788],[-63.7067,10.4905],[-63.734,10.4967],[-63.7386,10.4911],[-63.7423,10.5036],[-63.7625,10.5222],[-63.7898,10.5267],[-63.8026,10.5362],[-63.8057,10.542],[-63.8185,10.5494],[-63.8469,10.5533],[-63.8552,10.5513],[-63.8612,10.5541],[-63.8821,10.5498],[-63.9122,10.5537],[-63.9344,10.5663],[-63.9388,10.572],[-63.9464,10.5742],[-63.9468,10.5785],[-63.9511,10.5761],[-63.954,10.5796],[-63.9564,10.5768],[-63.9583,10.5797],[-63.9688,10.5794],[-63.9793,10.5754],[-64.0085,10.5793],[-64.0203,10.5758],[-64.0465,10.5759],[-64.0432,10.5841],[-64.0337,10.5876],[-64.0294,10.5861],[-64.021,10.5931],[-64.0284,10.5905],[-64.0277,10.5943],[-64.0299,10.5942],[-64.0317,10.5892],[-64.0328,10.5933],[-64.0427,10.5903],[-64.0417,10.5934],[-64.0459,10.5883],[-64.0495,10.6003],[-64.0533,10.589],[-64.0489,10.5868],[-64.0629,10.5826],[-64.0532,10.5794],[-64.0546,10.576],[-64.071,10.5727],[-64.0748,10.5751],[-64.0737,10.5793],[-64.0852,10.5706],[-64.1186,10.565],[-64.1131,10.5709],[-64.1199,10.5687],[-64.1206,10.5714],[-64.1239,10.5681],[-64.1252,10.575],[-64.1224,10.5783],[-64.1318,10.5784],[-64.1656,10.5712],[-64.1811,10.5579],[-64.2026,10.5545],[-64.2071,10.5441],[-64.2125,10.5416],[-64.2148,10.5192],[-64.2315,10.5031],[-64.2352,10.5099],[-64.2413,10.5121],[-64.2495,10.5217],[-64.2633,10.547],[-64.2584,10.5718],[-64.2501,10.564],[-64.2509,10.5663],[-64.2355,10.5788],[-64.2368,10.5823],[-64.2426,10.5825],[-64.2424,10.5868],[-64.2462,10.5873],[-64.2534,10.5717],[-64.2658,10.5756],[-64.283,10.5987],[-64.2895,10.6216],[-64.2965,10.6319],[-64.2933,10.6389],[-64.2838,10.6403],[-64.2788,10.647],[-64.2695,10.6507],[-64.266,10.6555],[-64.2684,10.6599],[-64.2623,10.6648],[-64.24,10.6371],[-64.2343,10.6405],[-64.2177,10.639],[-64.1978,10.6421],[-64.1922,10.6403],[-64.1787,10.6261],[-64.1691,10.6296],[-64.154,10.6188],[-64.1455,10.6212],[-64.1383,10.6151],[-64.1314,10.6205],[-64.1263,10.6185],[-64.1167,10.6219],[-64.105,10.634],[-64.0828,10.635],[-64.0721,10.6393],[-64.0684,10.6476],[-64.0627,10.647],[-64.0566,10.6513],[-64.0447,10.6496],[-64.0335,10.6337],[-64.0222,10.6334],[-64.0137,10.6287],[-64.0021,10.6343],[-63.9937,10.6302],[-63.9893,10.6352],[-63.9814,10.6296],[-63.9675,10.6274],[-63.9546,10.633],[-63.9451,10.6333],[-63.9281,10.625],[-63.916,10.6244],[-63.9046,10.6277],[-63.9018,10.6315],[-63.8903,10.6298],[-63.8402,10.6422],[-63.8276,10.6546],[-63.8257,10.6499],[-63.8232,10.6583],[-63.8268,10.659],[-63.8264,10.6617],[-63.8176,10.6611],[-63.8174,10.6522],[-63.8133,10.6527],[-63.8068,10.6655],[-63.7857,10.6731],[-63.7853,10.677],[-63.7929,10.6855],[-63.8021,10.6736],[-63.8248,10.6641],[-63.8223,10.6694],[-63.8249,10.6738],[-63.8156,10.6869],[-63.8156,10.6986],[-63.8126,10.7024],[-63.8154,10.7063],[-63.8104,10.708],[-63.7934,10.6875],[-63.7616,10.6584],[-63.7551,10.6594],[-63.7352,10.6526],[-63.7126,10.6566],[-63.6827,10.6407],[-63.6436,10.638],[-63.6336,10.6342],[-63.61,10.6347],[-63.5921,10.6291],[-63.5879,10.63],[-63.5875,10.6342],[-63.5816,10.6346],[-63.5696,10.6287],[-63.5582,10.6322],[-63.5328,10.6271],[-63.4993,10.6344],[-63.4937,10.641],[-63.4924,10.6481],[-63.5021,10.6526],[-63.4944,10.6561],[-63.4856,10.6501],[-63.4803,10.6516],[-63.4713,10.6486],[-63.4642,10.6635],[-63.4559,10.6596],[-63.447,10.6617],[-63.4427,10.6586],[-63.4446,10.654],[-63.4412,10.6526],[-63.4334,10.6561],[-63.4338,10.6607],[-63.437,10.6613],[-63.4347,10.6662],[-63.4299,10.6657],[-63.4258,10.6609],[-63.4157,10.6624],[-63.4202,10.6592],[-63.4126,10.6617],[-63.4147,10.6637],[-63.4069,10.6657],[-63.4083,10.6676],[-63.4037,10.6709],[-63.4074,10.6747],[-63.4029,10.6784],[-63.4029,10.6835],[-63.3996,10.6865],[-63.4005,10.6781],[-63.3968,10.6775],[-63.3871,10.6928],[-63.3855,10.6864],[-63.372,10.6796],[-63.3635,10.6829],[-63.3622,10.6899],[-63.3568,10.6772],[-63.3392,10.6689],[-63.3283,10.6697],[-63.3262,10.6843],[-63.3145,10.679],[-63.3149,10.6746],[-63.2842,10.663],[-63.2738,10.6666],[-63.2754,10.6726],[-63.2727,10.6773],[-63.2676,10.6753],[-63.2662,10.6698],[-63.266,10.6734],[-63.2535,10.6697],[-63.2513,10.6738],[-63.244,10.6713],[-63.2449,10.6773],[-63.2397,10.674],[-63.2322,10.6764],[-63.2284,10.684],[-63.2318,10.6869],[-63.2284,10.6893],[-63.1623,10.7141],[-63.1595,10.7221],[-63.1636,10.7263],[-63.167,10.7239],[-63.1664,10.728],[-63.1511,10.7268],[-63.151,10.7242],[-63.1567,10.724],[-63.1566,10.7169],[-63.1469,10.7081],[-63.119,10.7006],[-63.106,10.7083],[-63.0881,10.7121],[-63.0749,10.7087],[-63.0757,10.7111],[-63.0685,10.7144],[-63.0611,10.7136],[-63.0522,10.7182],[-63.0334,10.7079],[-63.0151,10.7109],[-63.0118,10.7144],[-63.0137,10.7173],[-63.0027,10.7245],[-62.9878,10.7096],[-62.9806,10.7102],[-62.9666,10.7005],[-62.9583,10.7015],[-62.9413,10.6968],[-62.9206,10.6981],[-62.9024,10.6917],[-62.8929,10.7021],[-62.8736,10.6986],[-62.8586,10.7102],[-62.8473,10.7102],[-62.8481,10.7139],[-62.8362,10.7117],[-62.8231,10.7199],[-62.8066,10.7214],[-62.8041,10.7287],[-62.7994,10.7274],[-62.779,10.7343],[-62.771,10.7331],[-62.757,10.737],[-62.7467,10.7487],[-62.7121,10.7653],[-62.7029,10.7604],[-62.7047,10.7569],[-62.6923,10.7458],[-62.6773,10.7456],[-62.6716,10.7416],[-62.6351,10.7439],[-62.6039,10.739],[-62.5955,10.7409],[-62.5849,10.7349],[-62.5729,10.7387],[-62.5634,10.7342],[-62.5557,10.7362],[-62.5507,10.7322],[-62.5249,10.7333],[-62.5189,10.7278],[-62.5062,10.7305],[-62.4933,10.7259],[-62.4826,10.7277],[-62.4779,10.7235],[-62.4673,10.7268],[-62.4587,10.721],[-62.4415,10.7245],[-62.4279,10.7176],[-62.4046,10.7178],[-62.4015,10.7153],[-62.3844,10.7177],[-62.3744,10.7107],[-62.3661,10.7144],[-62.3557,10.7124],[-62.3555,10.7099],[-62.3436,10.7129],[-62.3432,10.7105],[-62.3293,10.7096],[-62.3203,10.7046],[-62.31,10.7074],[-62.3072,10.6992],[-62.3022,10.6965],[-62.2949,10.7039],[-62.2905,10.6999],[-62.2901,10.6938],[-62.2832,10.6903],[-62.265,10.7012],[-62.2575,10.701],[-62.2567,10.6967],[-62.252,10.6939],[-62.2421,10.7001],[-62.2139,10.6956],[-62.2002,10.6996],[-62.1924,10.6971],[-62.1858,10.6858],[-62.1707,10.6828],[-62.1549,10.6843],[-62.1504,10.6939],[-62.1386,10.6987],[-62.1403,10.7044],[-62.1371,10.7012],[-62.1118,10.7003],[-62.1065,10.7074],[-62.1007,10.709],[-62.0958,10.6992],[-62.0839,10.7055],[-62.0698,10.6996],[-62.0619,10.7031],[-62.0552,10.7007],[-62.0501,10.704],[-62.0528,10.7135],[-62.0487,10.7178],[-62.04,10.7152],[-62.0275,10.7166],[-62.0315,10.712],[-62.031,10.7073],[-62.0233,10.7084],[-62.0185,10.7045],[-62.0142,10.7124],[-62.0078,10.7094],[-61.9996,10.7143],[-62.0025,10.7188],[-62.0009,10.7279],[-61.992,10.7207],[-61.9805,10.7205],[-61.9822,10.7162],[-61.9791,10.7111],[-61.9603,10.7165],[-61.9634,10.7275],[-61.9495,10.7208],[-61.9448,10.7219],[-61.9458,10.7196],[-61.9394,10.7143],[-61.9358,10.7169],[-61.9268,10.7139],[-61.9197,10.7218],[-61.917,10.7337],[-61.9096,10.73],[-61.8769,10.7296],[-61.8744,10.7376],[-61.8626,10.7492],[-61.8642,10.7426],[-61.8474,10.7342],[-61.8567,10.7326],[-61.8576,10.7281],[-61.8633,10.7314],[-61.8689,10.7229],[-61.8765,10.7267],[-61.8797,10.7183],[-61.8771,10.7097],[-61.881,10.7053],[-61.8776,10.7014],[-61.884,10.694],[-61.8832,10.6863],[-61.8883,10.6823],[-61.888,10.6769],[-61.8936,10.6727],[-61.9011,10.6782],[-61.8956,10.6942],[-61.898,10.6953],[-61.9065,10.684],[-61.9057,10.6778],[-61.9101,10.6767],[-61.9091,10.6702],[-61.9024,10.6648],[-61.9255,10.6562],[-61.9336,10.6644],[-61.9425,10.6584],[-61.9451,10.6491],[-61.9511,10.6495],[-61.955,10.6431],[-61.9608,10.6421],[-61.9665,10.6451],[-61.9783,10.6423],[-61.9851,10.6524],[-61.9918,10.6507],[-61.9917,10.6459],[-61.9977,10.6411],[-62.0064,10.6418],[-62.0134,10.6381],[-62.0154,10.6451],[-62.0225,10.6444],[-62.0275,10.6399],[-62.0259,10.635],[-62.0341,10.6314],[-62.0459,10.6326],[-62.0496,10.6416],[-62.0508,10.6385],[-62.0554,10.6397],[-62.055,10.6346],[-62.0638,10.6326],[-62.0644,10.6373],[-62.0591,10.64],[-62.0625,10.6424],[-62.0646,10.6384],[-62.0691,10.6419],[-62.0754,10.6413],[-62.0779,10.6373],[-62.0726,10.6313],[-62.0819,10.6302],[-62.0921,10.6343],[-62.1027,10.631],[-62.1077,10.6348],[-62.113,10.6302],[-62.118,10.6347],[-62.1206,10.6316],[-62.1277,10.6351],[-62.1285,10.6413],[-62.1332,10.6391],[-62.1334,10.633],[-62.1393,10.6361],[-62.1452,10.6336],[-62.1514,10.6365],[-62.1544,10.6435],[-62.1565,10.6385],[-62.162,10.6364],[-62.1772,10.6373],[-62.1883,10.6332],[-62.2084,10.6361],[-62.2208,10.6318],[-62.2274,10.6347],[-62.2503,10.6347],[-62.2735,10.6002],[-62.2827,10.5963],[-62.2859,10.5913],[-62.2925,10.5743],[-62.2885,10.5696],[-62.2879,10.5681],[-62.2881,10.5665],[-62.2942,10.5746],[-62.2954,10.5687],[-62.291,10.5676],[-62.2967,10.5684],[-62.3083,10.5595],[-62.3217,10.5386],[-62.3323,10.54],[-62.3464,10.5322],[-62.3583,10.5326],[-62.3658,10.5423],[-62.3901,10.5543],[-62.4038,10.5465],[-62.4075,10.5516],[-62.4303,10.5344],[-62.4407,10.5334],[-62.4533,10.5402],[-62.4571,10.5468],[-62.4687,10.552],[-62.4789,10.5477],[-62.4867,10.5537],[-62.5014,10.5526],[-62.5111,10.5464],[-62.5142,10.5482],[-62.5265,10.5432],[-62.5319,10.5487],[-62.5467,10.55],[-62.5781,10.5651],[-62.5894,10.563],[-62.6241,10.572],[-62.6324,10.5691],[-62.6559,10.5776],[-62.6777,10.5758],[-62.6961,10.5641],[-62.7107,10.5595],[-62.738,10.5591],[-62.7479,10.5555],[-62.7534,10.5628],[-62.7565,10.5626],[-62.7553,10.559],[-62.7869,10.5566],[-62.8178,10.5407],[-62.8516,10.5392],[-62.8553,10.5315],[-62.839,10.5243],[-62.8325,10.5076],[-62.8383,10.4747],[-62.823,10.4159],[-62.8284,10.3975],[-62.8175,10.3866],[-62.7999,10.4223],[-62.8115,10.4679],[-62.8078,10.4921],[-62.769,10.5024],[-62.7608,10.4946],[-62.7542,10.4712],[-62.7424,10.454],[-62.6536,10.3562],[-62.6471,10.3309],[-62.6645,10.2969],[-62.6,10.2427],[-62.5392,10.2171],[-62.4976,10.1786],[-62.4669,10.091],[-62.4607,10.0526],[-62.4404,10.0217],[-62.4348,9.9973],[-62.2221,9.995],[-62.2147,10.0078],[-62.1988,10.018],[-62.162,10.0091],[-62.1186,9.9851],[-62.1028,9.9827],[-62.0694,9.9704],[-62.015,9.9363],[-62.004,9.9245],[-61.9906,9.916],[-61.9429,9.899],[-61.9143,9.8782],[-61.865,9.8192],[-61.865,9.8145],[-61.8579,9.8112],[-61.8507,9.8003],[-61.8459,9.8022],[-61.8225,9.7889],[-61.8199,9.791],[-61.8242,9.807],[-61.8232,9.8167],[-61.8158,9.8236],[-61.8015,9.8282],[-61.7652,9.8224],[-61.6447,9.7769],[-61.6197,9.7808],[-61.5999,9.7802],[-61.5904,9.8126],[-61.5988,9.8186],[-61.5955,9.8216],[-61.5976,9.8252],[-61.6081,9.8243],[-61.6208,9.8333],[-61.619,9.8386],[-61.6132,9.8397],[-61.6025,9.8358],[-61.6025,9.8385],[-61.6111,9.8429],[-61.6067,9.8477],[-61.6448,9.8583],[-61.6496,9.864],[-61.6501,9.8677],[-61.6438,9.8649],[-61.6427,9.8684],[-61.6483,9.8711],[-61.6525,9.8879],[-61.6309,9.8889],[-61.6263,9.8844],[-61.6177,9.8846],[-61.5822,9.8698],[-61.5606,9.867],[-61.5286,9.8408],[-61.5035,9.8001],[-61.4941,9.7935],[-61.4835,9.7607],[-61.4781,9.7588],[-61.4597,9.7376],[-61.4436,9.7032],[-61.4206,9.6839],[-61.4076,9.6646],[-61.376,9.6549],[-61.3545,9.634],[-61.3572,9.6236],[-61.3533,9.6232],[-61.3482,9.6151],[-61.331,9.6112],[-61.3229,9.6135],[-61.2596,9.5783],[-61.2393,9.5771],[-61.2322,9.5724],[-61.231,9.5663],[-61.2104,9.5743],[-61.2245,9.5917],[-61.2174,9.5982],[-61.196,9.5874],[-61.1807,9.585],[-61.1702,9.5784],[-61.1616,9.5666],[-61.1383,9.5591],[-61.1173,9.5584],[-61.1147,9.5617],[-61.1288,9.5659],[-61.0996,9.5665],[-61.098,9.573],[-61.0868,9.5694],[-61.0816,9.5729],[-61.0596,9.5687],[-61.0445,9.5728],[-61.01,9.5565],[-60.993,9.5539],[-60.9779,9.5406],[-60.967,9.5247],[-60.9549,9.5153],[-60.9588,9.5001],[-60.9692,9.4917],[-60.9682,9.4798],[-60.9756,9.4799],[-60.9748,9.4755],[-60.9576,9.4686],[-60.9493,9.4773],[-60.9315,9.4773],[-60.9087,9.4648],[-60.8504,9.4172],[-60.8256,9.3903],[-60.8014,9.35],[-60.7697,9.2814],[-60.7623,9.271],[-60.77,9.2402],[-60.7472,9.2207],[-60.7394,9.1972],[-60.6912,9.1528],[-60.6812,9.1385],[-60.6854,9.1184],[-60.6752,9.085],[-60.6768,9.0664],[-60.6817,9.0597],[-60.7059,9.0427],[-60.7127,9.0415],[-60.7833,8.9855],[-60.7692,8.9671],[-60.7611,8.9311],[-60.7268,8.8833],[-60.7102,8.839],[-60.698,8.8156],[-60.6922,8.8116],[-60.6817,8.7947],[-60.653,8.7693],[-60.6464,8.7678],[-60.65,8.756],[-60.6682,8.7333],[-60.672,8.7185],[-60.6807,8.7044],[-60.6682,8.6688],[-60.6292,8.6549],[-60.5962,8.6371],[-60.5877,8.6261],[-60.581,8.6231],[-60.5807,8.6134],[-60.5893,8.6094],[-60.5931,8.5495],[-60.5458,8.5388],[-60.5225,8.5371],[-60.5135,8.5341],[-60.4949,8.519],[-60.4851,8.5282],[-60.473,8.5149],[-60.4609,8.5168],[-60.4495,8.5293],[-60.4487,8.5365],[-60.4453,8.5394],[-60.4449,8.554],[-60.4106,8.5648],[-60.3961,8.5564],[-60.3932,8.5686],[-60.4127,8.5761],[-60.4271,8.5862],[-60.4106,8.6054],[-60.4111,8.6184],[-60.392,8.6326],[-60.3488,8.6384],[-60.2423,8.6188],[-60.2152,8.6075],[-60.1969,8.6049],[-60.1867,8.5994],[-60.1681,8.5981],[-60.1604,8.5914],[-60.1362,8.5855],[-60.1015,8.5804],[-60.0824,8.5837],[-60.0701,8.5816],[-60.0629,8.5765],[-60.0518,8.5786],[-60.048,8.5765],[-60.0578,8.5723],[-60.0429,8.5656],[-60.0442,8.5589],[-60.034,8.5543],[-60.0354,8.5505],[-60.0221,8.5304],[-60.0017,8.5127],[-59.9789,8.4836],[-59.9561,8.4619],[-59.8512,8.3315],[-59.8402,8.3205],[-59.798,8.3014],[-59.7608,8.2715],[-59.7504,8.2566],[-59.7411,8.2313],[-59.7411,8.2198],[-59.8349,8.2335],[-59.9444,8.2138],[-59.9523,8.1911],[-59.9814,8.1865],[-59.9872,8.1785],[-59.9965,8.1555],[-59.9965,8.1463],[-59.986,8.1302],[-59.9964,8.121],[-60.0046,8.105],[-60.0081,8.0717],[-60.0313,8.0372],[-60.054,8.0174],[-60.0597,8.0162],[-60.0827,8.0243],[-60.0881,8.0327],[-60.1148,8.0278],[-60.1315,8.0033],[-60.1627,7.9737],[-60.1798,7.9719],[-60.187,7.9616],[-60.1985,7.9678],[-60.2011,7.9595],[-60.2176,7.9579],[-60.2359,7.945],[-60.2372,7.9394],[-60.2304,7.9377],[-60.2303,7.9332],[-60.2384,7.9304],[-60.2468,7.9123],[-60.2499,7.9137],[-60.2558,7.9095],[-60.2625,7.8962],[-60.2851,7.8868],[-60.3009,7.8695],[-60.3149,7.8682],[-60.3298,7.8438],[-60.3422,7.8373],[-60.3609,7.8173],[-60.3679,7.8326],[-60.3827,7.8369],[-60.4061,7.8301],[-60.4141,7.8345],[-60.4496,7.8424],[-60.4797,7.836],[-60.503,7.8357],[-60.5293,7.8261],[-60.5391,7.8171],[-60.5364,7.8018],[-60.5475,7.7811],[-60.5657,7.7654],[-60.5698,7.7445],[-60.5807,7.7318],[-60.5687,7.7138],[-60.5802,7.688],[-60.5901,7.6801],[-60.5896,7.6428],[-60.6129,7.6496],[-60.6187,7.6461],[-60.6245,7.6374],[-60.6285,7.6117],[-60.6474,7.5722],[-60.6743,7.5702],[-60.6838,7.5773],[-60.6881,7.5755],[-60.6901,7.5623],[-60.6954,7.5576],[-60.7028,7.5565],[-60.7095,7.5452],[-60.6915,7.4744],[-60.6819,7.4698],[-60.6744,7.4706],[-60.6671,7.4619],[-60.6524,7.4583],[-60.6383,7.4486],[-60.6335,7.4349],[-60.6336,7.424],[-60.6219,7.4067],[-60.6035,7.3885],[-60.6009,7.374],[-60.5877,7.3406],[-60.5859,7.3141],[-60.5907,7.3092],[-60.5982,7.3077],[-60.6093,7.2825],[-60.6231,7.2727],[-60.6277,7.2656],[-60.6229,7.2366],[-60.6138,7.2119],[-60.5893,7.2016],[-60.5853,7.1867],[-60.5603,7.1637],[-60.5324,7.1286],[-60.5265,7.1297],[-60.514,7.1428],[-60.493,7.1868],[-60.4725,7.1893],[-60.4489,7.2101],[-60.4427,7.2113],[-60.4252,7.2025],[-60.4042,7.1781],[-60.3912,7.1768],[-60.3642,7.1878],[-60.342,7.1798],[-60.3359,7.1712],[-60.3335,7.1569],[-60.3155,7.154],[-60.3073,7.1448],[-60.2776,7.1266],[-60.2757,7.11],[-60.2799,7.1055],[-60.276,7.087],[-60.2814,7.084],[-60.2873,7.0562],[-60.2956,7.0447],[-60.312,7.0464],[-60.3234,7.0398],[-60.3242,7.0309],[-60.3306,7.0274],[-60.3313,7.0162],[-60.3373,7.0114],[-60.3467,7.0098],[-60.3519,6.9961],[-60.354,6.9497],[-60.3602,6.9328],[-60.3667,6.9267],[-60.3845,6.9439],[-60.3911,6.9453],[-60.4275,6.9382],[-60.4387,6.9328],[-60.4786,6.8861],[-60.4925,6.8783],[-60.5195,6.8771],[-60.5358,6.8535],[-60.5845,6.849],[-60.5988,6.837],[-60.6492,6.825],[-60.6599,6.8156],[-60.6782,6.7804],[-60.6991,6.7544],[-60.744,6.7637],[-60.8004,6.794],[-60.812,6.7934],[-60.8264,6.786],[-60.8573,6.7916],[-60.8881,6.8162],[-60.9023,6.8147],[-60.9093,6.8],[-60.907,6.7813],[-60.9042,6.7756],[-60.8859,6.7664],[-60.8879,6.7523],[-60.8966,6.7474],[-60.9057,6.7468],[-60.9394,6.7149],[-60.9692,6.7157],[-60.9872,6.7284],[-61.008,6.7214],[-61.0381,6.7212],[-61.0602,6.7263],[-61.0701,6.7072],[-61.0765,6.7047],[-61.0914,6.7133],[-61.1164,6.7186],[-61.1328,6.7106],[-61.1377,6.6903],[-61.1454,6.6873],[-61.1471,6.6803],[-61.1672,6.6725],[-61.1757,6.6576],[-61.1693,6.6459],[-61.1725,6.6373],[-61.1764,6.6322],[-61.1878,6.629],[-61.1971,6.5963],[-61.2092,6.5934],[-61.2091,6.5815],[-61.2159,6.5794],[-61.2154,6.573],[-61.2096,6.5678],[-61.2099,6.5578],[-61.2012,6.5509],[-61.2016,6.5439],[-61.2091,6.5387],[-61.2094,6.5305],[-61.1955,6.5267],[-61.1894,6.5381],[-61.1795,6.5323],[-61.1618,6.5341],[-61.155,6.5281],[-61.15,6.5046],[-61.1593,6.486],[-61.1587,6.4773],[-61.1493,6.4648],[-61.1329,6.4523],[-61.1305,6.4466],[-61.1282,6.4176],[-61.1303,6.4081],[-61.1362,6.4098],[-61.1398,6.3879],[-61.1475,6.3875],[-61.1431,6.3806],[-61.1471,6.3762],[-61.1441,6.3617],[-61.1462,6.3538],[-61.1529,6.3405],[-61.1646,6.3282],[-61.1519,6.3145],[-61.1435,6.2939],[-61.1365,6.2848],[-61.1267,6.2825],[-61.1274,6.2765],[-61.1038,6.2681],[-61.1152,6.2506],[-61.1208,6.2168],[-61.1126,6.2045],[-61.1081,6.2026],[-61.1036,6.1884],[-61.1153,6.1784],[-61.1378,6.1826],[-61.1614,6.1811],[-61.1687,6.1722],[-61.1673,6.1423],[-61.1775,6.1149],[-61.1895,6.1163],[-61.2002,6.1022],[-61.2171,6.1121],[-61.2319,6.099],[-61.2429,6.0962],[-61.2632,6.0982],[-61.2679,6.0813],[-61.2762,6.0702],[-61.2974,6.0512],[-61.3058,6.0478],[-61.3096,6.0406],[-61.3176,6.0381],[-61.3284,6.0187],[-61.3368,6.0151],[-61.344,6.0018],[-61.3429,5.99],[-61.3527,5.9824],[-61.3528,5.9693],[-61.3655,5.9613],[-61.385,5.9575],[-61.3896,5.9527],[-61.3879,5.9376],[-60.7314,5.1991],[-60.7072,5.1964],[-60.6815,5.1855],[-60.6707,5.1698],[-60.6556,5.1364],[-60.6537,5.1126],[-60.6434,5.1006],[-60.6314,5.0479],[-60.6093,5.0182],[-60.5843,4.9545],[-60.5845,4.9374],[-60.5939,4.9269],[-60.6108,4.9176],[-60.6389,4.8664],[-60.671,4.8399],[-60.6887,4.8093],[-60.7034,4.7967],[-60.7132,4.7928],[-60.744,4.7561],[-60.7643,4.7463],[-60.8058,4.7376],[-60.8396,4.7132],[-60.8756,4.7059],[-60.8872,4.7072],[-60.9069,4.7011],[-60.9159,4.6915],[-60.9224,4.6523],[-60.9299,4.644],[-60.9468,4.6355],[-60.9375,4.6234],[-60.9312,4.5985],[-60.9343,4.5775],[-60.9393,4.569],[-60.9637,4.5577],[-60.979,4.5292],[-60.9973,4.5107],[-61.0083,4.5082],[-61.036,4.5158],[-61.0617,4.516],[-61.0755,4.5065],[-61.1117,4.5039],[-61.1286,4.4841],[-61.1482,4.4767],[-61.1856,4.5106],[-61.2503,4.5278],[-61.3139,4.5259],[-61.3247,4.5142],[-61.325,4.5057],[-61.3025,4.4901],[-61.2826,4.4674],[-61.2758,4.4635],[-61.2765,4.4557],[-61.303,4.4464],[-61.3237,4.4219],[-61.3488,4.4086],[-61.3747,4.4181],[-61.3962,4.421],[-61.4049,4.4261],[-61.4492,4.424],[-61.4632,4.4172],[-61.4873,4.4121],[-61.5028,4.3935],[-61.5152,4.3623],[-61.5164,4.3538],[-61.5094,4.304],[-61.518,4.2837],[-61.5389,4.2618],[-61.5543,4.252],[-61.5784,4.2428],[-61.6089,4.2496],[-61.6262,4.2495],[-61.6404,4.2353],[-61.6467,4.2347],[-61.6529,4.2386],[-61.6562,4.2465],[-61.6689,4.254],[-61.7016,4.2503],[-61.7203,4.2542],[-61.7199,4.2407],[-61.7573,4.2449],[-61.7738,4.2356],[-61.7906,4.2182],[-61.8137,4.1766],[-61.8355,4.1566],[-61.8565,4.166],[-61.8681,4.1523],[-61.9138,4.1498],[-61.9204,4.1384],[-61.9423,4.1295],[-61.9556,4.1381],[-61.9607,4.1472],[-61.9885,4.1685],[-62.0351,4.1478],[-62.0481,4.1491],[-62.0589,4.1559],[-62.0652,4.1299],[-62.0718,4.1173],[-62.1002,4.1122],[-62.1164,4.0868],[-62.1288,4.0779],[-62.145,4.0771],[-62.1868,4.0863],[-62.2482,4.127],[-62.2599,4.1303],[-62.2796,4.1273],[-62.3148,4.1331],[-62.3339,4.1385],[-62.3694,4.1644],[-62.3808,4.1657],[-62.4119,4.1782],[-62.4436,4.1805],[-62.4624,4.1696],[-62.4646,4.1661],[-62.4593,4.153],[-62.4613,4.1495],[-62.4868,4.129],[-62.511,4.1306],[-62.5364,4.1138],[-62.5517,4.0981],[-62.5522,4.0936],[-62.5442,4.0779],[-62.5393,4.0496],[-62.5538,4.0383],[-62.5542,4.0222],[-62.5605,4.0176],[-62.5669,4.0164],[-62.5838,4.0209],[-62.618,4.0403],[-62.6373,4.0397],[-62.6549,4.0439],[-62.7003,4.0334],[-62.7434,4.0363],[-62.7654,3.9982],[-62.7516,3.9842],[-62.7487,3.9773],[-62.7514,3.9589],[-62.7767,3.9268],[-62.7816,3.9053],[-62.7762,3.8815],[-62.7673,3.8689],[-62.7574,3.8636],[-62.7658,3.8192],[-62.7458,3.7935],[-62.7387,3.7776],[-62.73,3.6932],[-62.7356,3.6766],[-62.7424,3.6691],[-62.7537,3.6357],[-62.7747,3.6074],[-62.7855,3.5995],[-62.8417,3.5934],[-62.8502,3.5859],[-62.8525,3.5715],[-62.8589,3.5595],[-62.8657,3.5549],[-62.8874,3.5505],[-62.9292,3.5522],[-62.9565,3.5631],[-62.9802,3.5802],[-62.9903,3.6001],[-63.0003,3.6109],[-63.0152,3.6501],[-63.0481,3.687],[-63.0681,3.696],[-63.0774,3.7059],[-63.1005,3.7425],[-63.1475,3.7792],[-63.1598,3.7956],[-63.2002,3.8299],[-63.2041,3.8736],[-63.2105,3.8904],[-63.227,3.9077],[-63.2614,3.9177],[-63.2705,3.9244],[-63.3401,3.9559],[-63.3704,3.9667],[-63.4049,3.9648],[-63.4179,3.9455],[-63.4274,3.9042],[-63.4479,3.8674],[-63.4698,3.8516],[-63.485,3.8475],[-63.5011,3.85],[-63.5231,3.8617],[-63.5846,3.9386],[-63.6078,3.9612],[-63.6176,3.9628],[-63.6397,3.9569],[-63.69,3.9354],[-63.737,3.9272],[-63.7705,3.9257],[-63.7924,3.9336],[-63.8037,3.949],[-63.8244,3.9624],[-63.8493,3.9542],[-63.864,3.936],[-63.908,3.9205],[-63.9204,3.9042],[-63.9425,3.8861],[-63.9729,3.8687],[-63.9966,3.8646],[-64.0096,3.866],[-64.0337,3.8992],[-64.0443,3.9256],[-64.0556,3.9705],[-64.0504,3.9984],[-64.0639,4.0101],[-64.0837,4.0166],[-64.0985,4.0409],[-64.0959,4.0473],[-64.0977,4.0523],[-64.1216,4.0681],[-64.1261,4.0978],[-64.1354,4.1085],[-64.1401,4.1082],[-64.1606,4.0941],[-64.175,4.0945],[-64.204,4.1038],[-64.2128,4.1134],[-64.2192,4.1159],[-64.234,4.1149],[-64.263,4.1306],[-64.2683,4.1303],[-64.2766,4.1196],[-64.277,4.1135],[-64.2654,4.0985],[-64.2693,4.0943],[-64.2827,4.0922],[-64.2904,4.0806],[-64.3073,4.0862],[-64.3108,4.0907],[-64.3015,4.1096],[-64.3176,4.1154],[-64.3302,4.1256],[-64.3495,4.1322],[-64.3652,4.1334],[-64.3679,4.1363],[-64.4057,4.1208],[-64.4138,4.1417],[-64.4279,4.1414],[-64.4463,4.146],[-64.4591,4.1441],[-64.4639,4.1509],[-64.4679,4.1516],[-64.4733,4.1279],[-64.4845,4.129],[-64.4951,4.126],[-64.5235,4.1114],[-64.5545,4.1009],[-64.5934,4.0979],[-64.6259,4.1092],[-64.6416,4.1191],[-64.6481,4.1291],[-64.651,4.1538],[-64.6596,4.1622],[-64.6923,4.211],[-64.7023,4.2365],[-64.7115,4.2495],[-64.7258,4.2641],[-64.7337,4.2651],[-64.7616,4.2843],[-64.7852,4.307],[-64.7913,4.3074],[-64.8059,4.2863],[-64.8056,4.2767],[-64.7992,4.2651],[-64.7788,4.2487],[-64.7724,4.239],[-64.7747,4.2333],[-64.7823,4.2338],[-64.7844,4.2312],[-64.784,4.2138],[-64.79,4.1939],[-64.7881,4.1863],[-64.7947,4.1683],[-64.7862,4.1583],[-64.7761,4.1566],[-64.7549,4.1391],[-64.7344,4.1347],[-64.7337,4.1323],[-64.7491,4.1156],[-64.7489,4.1043],[-64.7624,4.0822],[-64.7627,4.0776],[-64.7488,4.0545],[-64.7439,4.049],[-64.7169,4.0419],[-64.7021,4.0493],[-64.6965,4.0488],[-64.6929,4.0516],[-64.6893,4.0667],[-64.6845,4.0669],[-64.6778,4.0563],[-64.6753,4.044],[-64.6792,4.0353],[-64.694,4.0304],[-64.6927,4.0185],[-64.6671,4.0074],[-64.6614,3.9983],[-64.636,4.0022],[-64.626,3.9968],[-64.6218,3.9898],[-64.6219,3.9713],[-64.6079,3.942],[-64.5737,3.9151],[-64.5549,3.878],[-64.5479,3.8534],[-64.5058,3.8233],[-64.4781,3.7899],[-64.4585,3.7825],[-64.438,3.7804],[-64.4198,3.7694],[-64.402,3.7647],[-64.3637,3.7463],[-64.293,3.7],[-64.2789,3.6857],[-64.2685,3.6604],[-64.2448,3.6452],[-64.2296,3.6275],[-64.1804,3.5476],[-64.1944,3.4955],[-64.2304,3.4379],[-64.2382,3.417],[-64.2364,3.4013],[-64.228,3.3793],[-64.2265,3.3436],[-64.2296,3.322],[-64.2163,3.2719],[-64.2127,3.2503],[-64.2139,3.2214],[-64.2078,3.2039],[-64.2076,3.1862],[-64.2178,3.1526],[-64.2274,3.1334],[-64.2274,3.117],[-64.2195,3.0929],[-64.2,3.0731],[-64.1648,3.0489],[-64.1443,3.0199],[-64.1131,2.9433],[-64.0888,2.9247],[-64.0793,2.912],[-64.073,2.8929],[-64.0695,2.852],[-64.0504,2.8244],[-64.0025,2.7807],[-63.9933,2.7549],[-63.9893,2.7184],[-63.9933,2.6791],[-63.9911,2.6552],[-63.9841,2.631],[-64.0015,2.5934],[-64.0322,2.5503],[-64.0327,2.536],[-64.0453,2.4954],[-64.0231,2.4645],[-64.0024,2.4553],[-63.953,2.4605],[-63.9364,2.4529],[-63.9155,2.4377],[-63.8764,2.4226],[-63.8385,2.4028],[-63.8246,2.3991],[-63.7087,2.4167],[-63.6784,2.4396],[-63.6595,2.4446],[-63.6317,2.443],[-63.606,2.436],[-63.5794,2.4226],[-63.5587,2.4193],[-63.5356,2.4099],[-63.5007,2.4102],[-63.4711,2.415],[-63.4343,2.3997],[-63.4052,2.3959],[-63.3729,2.3995],[-63.3495,2.3919],[-63.3523,2.3763],[-63.3724,2.3458],[-63.3682,2.3246],[-63.356,2.2963],[-63.361,2.2345],[-63.3695,2.2118],[-63.3905,2.188],[-63.3877,2.1634],[-63.3903,2.1365],[-63.4028,2.1235],[-63.4642,2.1299],[-63.4937,2.107],[-63.5453,2.1167],[-63.5576,2.1147],[-63.5824,2.1003],[-63.6082,2.0921],[-63.6281,2.0529],[-63.6525,2.0394],[-63.6585,2.0098],[-63.6894,2.0257],[-63.7017,2.0271],[-63.717,2.0161],[-63.7455,1.9833],[-63.7562,1.9765],[-63.8019,1.9789],[-63.8165,1.9718],[-63.8348,1.9571],[-63.8416,1.9562],[-63.8638,1.9733],[-63.879,1.9767],[-63.9446,1.9737],[-63.9666,1.9767],[-63.994,1.9655],[-64.0448,1.9197],[-64.0463,1.8859],[-64.0569,1.8522],[-64.0565,1.829],[-64.0518,1.8081],[-64.0559,1.781],[-64.0614,1.7674],[-64.0601,1.6804],[-64.0719,1.6134],[-64.0993,1.5705],[-64.1758,1.5412],[-64.1857,1.5151],[-64.1957,1.5045],[-64.2843,1.4546],[-64.303,1.4349],[-64.3123,1.4129],[-64.3199,1.3874],[-64.3225,1.3583],[-64.3296,1.3452],[-64.3403,1.3429],[-64.3548,1.3585],[-64.3943,1.377],[-64.3983,1.3924],[-64.3915,1.4096],[-64.3687,1.4254],[-64.341,1.4882],[-64.3469,1.5004],[-64.3594,1.5062],[-64.375,1.509],[-64.3873,1.5076],[-64.4272,1.4737],[-64.4611,1.4519],[-64.5039,1.4428],[-64.5135,1.4373],[-64.5269,1.4233],[-64.5385,1.4004],[-64.5574,1.3912],[-64.5764,1.3361],[-64.5842,1.3249],[-64.6156,1.3075],[-64.6416,1.2844],[-64.7062,1.2608],[-64.713,1.2353],[-64.7215,1.2181],[-64.7383,1.2071],[-64.7552,1.2071],[-64.7779,1.2195],[-64.7871,1.2349],[-64.7852,1.2769],[-64.7995,1.2839],[-64.8211,1.2834],[-64.8398,1.2729],[-64.8667,1.219],[-64.8774,1.2107],[-64.891,1.2158],[-64.911,1.2153],[-64.921,1.2071],[-64.9599,1.1878],[-64.9643,1.1761],[-64.9877,1.1527],[-64.9993,1.1502],[-65.0155,1.1337],[-65.0144,1.0896],[-65.0435,1.0823],[-65.0617,1.0942],[-65.0669,1.1112],[-65.1023,1.1315],[-65.1385,1.1136],[-65.1608,1.0739],[-65.1657,0.978],[-65.1733,0.9378],[-65.1836,0.9155],[-65.1984,0.9022],[-65.2247,0.9078],[-65.2395,0.9016],[-65.2699,0.9197],[-65.299,0.9206],[-65.3244,0.9122],[-65.3579,0.8633],[-65.3934,0.8314],[-65.4064,0.8101],[-65.4062,0.7711],[-65.4012,0.7502],[-65.4158,0.7247],[-65.4215,0.7027],[-65.432,0.6816],[-65.4468,0.6678],[-65.5029,0.6531],[-65.5206,0.6522],[-65.5458,0.6346],[-65.5558,0.6389],[-65.573,0.6582],[-65.5885,0.6809],[-65.5912,0.7009],[-65.58,0.7319],[-65.5518,0.7619],[-65.507,0.8204],[-65.5051,0.848],[-65.5114,0.873],[-65.5558,0.9712],[-65.5908,0.9827],[-65.6119,0.994],[-65.6203,0.9809],[-65.6272,0.9761],[-65.6406,0.9864],[-65.6535,0.9903],[-65.6733,0.9804],[-65.6942,0.9818],[-65.7235,0.9889],[-65.7401,0.9811],[-65.7458,0.9754],[-65.7487,0.9662],[-65.7635,0.9526],[-65.8083,0.9347],[-65.8821,0.9191],[-65.8899,0.8833],[-65.8958,0.8714],[-65.9212,0.8604],[-65.9276,0.8548],[-65.941,0.8216],[-65.9599,0.7968],[-65.9885,0.7878],[-66.054,0.7853],[-66.066,0.7878],[-66.1221,0.7368],[-66.1312,0.7352],[-66.1535,0.7366],[-66.2132,0.7654],[-66.3211,0.7342],[-66.8414,1.206],[-66.8558,1.2434],[-66.8759,1.2635],[-66.8809,1.2816],[-66.881,1.2903],[-66.8733,1.3051],[-66.8668,1.3099],[-66.854,1.312],[-66.8485,1.3186],[-66.8477,1.3353],[-66.852,1.3562],[-66.8561,1.3697],[-66.8748,1.3981],[-66.9016,1.4091],[-66.9112,1.4235],[-66.9082,1.4819],[-66.9208,1.531],[-66.9423,1.5752],[-66.9485,1.5814],[-66.9585,1.5845],[-66.9629,1.5906],[-66.9587,1.6228],[-66.9644,1.6446],[-66.9624,1.6686],[-66.9706,1.6805],[-66.9896,1.6906],[-67.0027,1.7274],[-67.013,1.7409],[-67.0157,1.7615],[-67.0331,1.7864],[-67.0377,1.809],[-67.0354,1.8455],[-67.0469,1.8597],[-67.0586,1.8932],[-67.0606,1.9082],[-67.0716,1.934],[-67.0765,1.9391],[-67.0842,1.9405],[-67.0913,1.951],[-67.1036,1.9583],[-67.1139,1.9749],[-67.123,1.9769],[-67.1151,2.0199],[-67.097,2.0524],[-67.0992,2.0737],[-67.106,2.0939],[-67.108,2.1193],[-67.1155,2.1346],[-67.1217,2.137],[-67.1337,2.1345],[-67.1476,2.1256],[-67.1538,2.1264],[-67.1616,2.1328],[-67.1907,2.1775],[-67.2013,2.2105],[-67.2025,2.2233],[-67.222,2.2542],[-67.214,2.2807],[-67.2184,2.2937],[-67.2174,2.3027],[-67.2137,2.3096],[-67.1968,2.3227],[-67.1861,2.3405],[-67.1879,2.3503],[-67.2032,2.3665],[-67.2129,2.3803],[-67.215,2.3905],[-67.2238,2.4003],[-67.2394,2.4087],[-67.2606,2.4291],[-67.2766,2.4297],[-67.2971,2.4419],[-67.3031,2.4612],[-67.3128,2.4687],[-67.3162,2.4769],[-67.3273,2.4847],[-67.3345,2.4957],[-67.3352,2.5093],[-67.3394,2.5187],[-67.3519,2.5295],[-67.3579,2.5294],[-67.3833,2.544],[-67.3865,2.563],[-67.3921,2.5736],[-67.4147,2.5833],[-67.4509,2.6194],[-67.4676,2.6194],[-67.4852,2.6658],[-67.5055,2.6664],[-67.5232,2.6734],[-67.5389,2.6683],[-67.5543,2.6536],[-67.5631,2.6571],[-67.5689,2.6687],[-67.5693,2.6809],[-67.5629,2.7164],[-67.5638,2.7261],[-67.5843,2.7439],[-67.5852,2.7771],[-67.6103,2.8041],[-67.6123,2.8102],[-67.6194,2.8139],[-67.6379,2.8103],[-67.6498,2.7979],[-67.6583,2.7966],[-67.7356,2.8169],[-67.7382,2.8229],[-67.7347,2.8312],[-67.7361,2.8356],[-67.7504,2.8375],[-67.7826,2.8267],[-67.8154,2.8313],[-67.8266,2.822],[-67.838,2.7933],[-67.8527,2.7917],[-67.857,2.7884],[-67.8641,2.7895],[-67.8628,2.8649],[-67.4349,3.2485],[-67.3812,3.2484],[-67.3843,3.265],[-67.3816,3.2926],[-67.3752,3.301],[-67.3566,3.3094],[-67.3364,3.3317],[-67.325,3.3566],[-67.325,3.3639],[-67.3108,3.3779],[-67.313,3.3946],[-67.33,3.4257],[-67.3392,3.451],[-67.3567,3.4577],[-67.3698,3.467],[-67.3946,3.4716],[-67.4015,3.48],[-67.4074,3.5014],[-67.412,3.5389],[-67.4307,3.5622],[-67.4332,3.5779],[-67.4441,3.5852],[-67.4488,3.6115],[-67.4454,3.614],[-67.4389,3.6432],[-67.453,3.6551],[-67.448,3.6765],[-67.4544,3.6827],[-67.466,3.6847],[-67.4792,3.7048],[-67.486,3.7238],[-67.4866,3.7427],[-67.5013,3.7674],[-67.5198,3.7751],[-67.5248,3.7737],[-67.5373,3.7584],[-67.5446,3.7554],[-67.5561,3.7572],[-67.5943,3.7513],[-67.6068,3.7521],[-67.6135,3.7572],[-67.6227,3.7779],[-67.6344,3.7856],[-67.645,3.8151],[-67.6447,3.8489],[-67.6502,3.8689],[-67.6589,3.8822],[-67.6629,3.8971],[-67.6764,3.9123],[-67.6812,3.913],[-67.6915,3.9326],[-67.6909,3.9524],[-67.6974,3.977],[-67.7016,4.0342],[-67.7185,4.0627],[-67.7332,4.1229],[-67.742,4.1392],[-67.7684,4.1623],[-67.7757,4.1826],[-67.7766,4.2042],[-67.797,4.2297],[-67.7985,4.2418],[-67.7913,4.2766],[-67.8057,4.3152],[-67.804,4.3273],[-67.7991,4.3354],[-67.791,4.34],[-67.7734,4.3377],[-67.7638,4.3411],[-67.7616,4.3493],[-67.7662,4.367],[-67.7788,4.3794],[-67.7815,4.3924],[-67.7783,4.4043],[-67.7723,4.4124],[-67.7732,4.419],[-67.7871,4.425],[-67.7978,4.4371],[-67.7918,4.4628],[-67.7967,4.4766],[-67.8176,4.4965],[-67.8461,4.5107],[-67.8537,4.5177],[-67.8576,4.5312],[-67.8552,4.539],[-67.8393,4.5575],[-67.8461,4.5938],[-67.8449,4.6451],[-67.8178,4.7072],[-67.8238,4.7337],[-67.8264,4.7675],[-67.8223,4.8065],[-67.8233,4.8399],[-67.8264,4.8583],[-67.8357,4.8816],[-67.8387,4.9435],[-67.8302,4.9561],[-67.8233,4.9771],[-67.8197,5.0288],[-67.8097,5.0421],[-67.8059,5.054],[-67.8219,5.0659],[-67.8221,5.0839],[-67.8543,5.1352],[-67.8379,5.1779],[-67.8244,5.1961],[-67.8308,5.224],[-67.8239,5.251],[-67.8314,5.2617],[-67.8469,5.2695],[-67.8493,5.2739],[-67.8495,5.304],[-67.8378,5.3209],[-67.8198,5.3348],[-67.7997,5.3587],[-67.7764,5.3681],[-67.7548,5.3849],[-67.7268,5.397],[-67.7074,5.4193],[-67.6809,5.4279],[-67.6251,5.4757],[-67.6191,5.5124],[-67.6052,5.525],[-67.5989,5.5443],[-67.6203,5.5665],[-67.6199,5.5882],[-67.6272,5.6055],[-67.6305,5.6322],[-67.6374,5.6468],[-67.638,5.6747],[-67.6312,5.7321],[-67.6193,5.7484],[-67.6107,5.7766],[-67.6087,5.7954],[-67.6005,5.8091],[-67.5974,5.8278],[-67.587,5.8409],[-67.5633,5.8593],[-67.5568,5.8733],[-67.532,5.9047],[-67.4786,5.9363],[-67.4628,5.959],[-67.441,5.9736],[-67.4166,5.984],[-67.4101,5.9943],[-67.4122,6.0113],[-67.4278,6.0264],[-67.4276,6.0384],[-67.4596,6.0627],[-67.4716,6.0808],[-67.4763,6.1002],[-67.4936,6.128],[-67.4925,6.146],[-67.486,6.1635],[-67.4559,6.1899],[-67.4681,6.2069],[-67.5119,6.2342],[-67.535,6.2604],[-67.5464,6.266],[-67.5864,6.2624],[-67.5962,6.2676],[-67.6109,6.2852],[-67.6253,6.2914],[-67.6414,6.2894],[-67.6993,6.2936],[-67.7185,6.3005],[-67.762,6.2914],[-67.7702,6.295],[-67.7962,6.3201],[-67.8105,6.3243],[-67.8459,6.3119],[-67.8608,6.2949],[-67.9027,6.2671],[-67.9293,6.2366],[-67.9575,6.224],[-67.9778,6.2083],[-68.0016,6.2082],[-68.0273,6.1961],[-68.0432,6.1989],[-68.064,6.22],[-68.0777,6.2271],[-68.0974,6.2319],[-68.12,6.2255],[-68.1419,6.2287],[-68.1688,6.221],[-68.186,6.2104],[-68.2142,6.2075],[-68.2408,6.1974],[-68.2564,6.1974],[-68.2841,6.1731],[-68.3072,6.1629],[-68.3289,6.1641],[-68.3558,6.1796],[-68.3741,6.186],[-68.3971,6.1823],[-68.4132,6.1854],[-68.4275,6.1821],[-68.4483,6.1878],[-68.4634,6.1836],[-68.5101,6.1791],[-68.5229,6.1591],[-68.5423,6.1489],[-68.5514,6.1497],[-68.5769,6.167],[-68.589,6.1662],[-68.6155,6.1508],[-68.6293,6.1364],[-68.6446,6.1291],[-68.6871,6.132],[-68.6927,6.1375],[-68.6955,6.1471],[-68.7065,6.1521],[-68.7276,6.1519],[-68.7521,6.1569],[-68.7927,6.1474],[-68.8095,6.1706],[-68.8293,6.1799],[-68.8547,6.178],[-68.8689,6.169],[-68.8819,6.1673],[-68.9176,6.1773],[-68.9339,6.1768],[-68.9722,6.196],[-69.0045,6.1916],[-69.0142,6.1929],[-69.023,6.2006],[-69.0317,6.2176],[-69.0464,6.2217],[-69.0888,6.2101],[-69.0967,6.1972],[-69.102,6.194],[-69.1242,6.1906],[-69.1387,6.1755],[-69.1503,6.1509],[-69.1777,6.1473],[-69.212,6.1179],[-69.2173,6.102],[-69.2386,6.0795],[-69.2598,6.0829],[-69.274,6.0812],[-69.2875,6.0871],[-69.3073,6.089],[-69.3148,6.0984],[-69.3293,6.132],[-69.3447,6.1444],[-69.361,6.14],[-69.3844,6.1255],[-69.4043,6.1256],[-69.4171,6.1124],[-69.4276,6.1073],[-70.1178,6.9794],[-70.1344,6.9752],[-70.1453,6.979],[-70.1496,6.9843],[-70.1728,6.9764],[-70.1802,6.9794],[-70.1918,6.9762],[-70.1967,6.9791],[-70.2019,6.9757],[-70.2061,6.9784],[-70.2109,6.9744],[-70.2243,6.9747],[-70.2304,6.9654],[-70.25,6.9585],[-70.2496,6.9535],[-70.2655,6.9412],[-70.2732,6.941],[-70.2775,6.9376],[-70.2838,6.9411],[-70.2945,6.934],[-70.3026,6.9374],[-70.3224,6.9346],[-70.3278,6.9406],[-70.3442,6.9444],[-70.3484,6.9521],[-70.3545,6.952],[-70.3523,6.9566],[-70.3608,6.9562],[-70.3615,6.967],[-70.3711,6.9716],[-70.3721,6.9809],[-70.3799,6.9806],[-70.3873,6.9856],[-70.3974,6.9816],[-70.4041,6.9882],[-70.4062,6.9847],[-70.4173,6.9813],[-70.4277,6.9938],[-70.4265,6.9981],[-70.4311,7.0073],[-70.4369,7.0065],[-70.4369,7.0012],[-70.4394,7.0079],[-70.4433,7.003],[-70.4552,7.0038],[-70.4504,7.0082],[-70.4554,7.0119],[-70.4597,7.0027],[-70.4657,7.0033],[-70.467,7.0007],[-70.4905,7.009],[-70.4927,7.0054],[-70.5023,7.0057],[-70.5092,7.018],[-70.5146,7.0207],[-70.5112,7.0275],[-70.5257,7.0357],[-70.5281,7.0418],[-70.5388,7.0407],[-70.5322,7.046],[-70.5398,7.0452],[-70.5414,7.0481],[-70.5354,7.0546],[-70.5423,7.0616],[-70.544,7.069],[-70.5563,7.0793],[-70.562,7.0775],[-70.571,7.0808],[-70.5762,7.075],[-70.5843,7.0761],[-70.586,7.0684],[-70.6065,7.0637],[-70.6245,7.0705],[-70.6415,7.0687],[-70.6465,7.0781],[-70.6759,7.0879],[-70.6872,7.1044],[-70.697,7.094],[-70.715,7.094],[-70.7336,7.0889],[-70.7423,7.0889],[-70.7622,7.0973],[-70.7644,7.0909],[-70.7699,7.0889],[-70.7777,7.0766],[-70.7873,7.0833],[-70.7968,7.0832],[-70.8184,7.0794],[-70.8226,7.0699],[-70.8368,7.0785],[-70.8464,7.0744],[-70.8533,7.0777],[-70.8567,7.0748],[-70.8567,7.0696],[-70.8455,7.0698],[-70.8522,7.0631],[-70.8491,7.057],[-70.863,7.0549],[-70.8724,7.064],[-70.8863,7.0644],[-70.8953,7.0593],[-70.9077,7.0413],[-70.9129,7.0439],[-70.9155,7.0527],[-70.919,7.0526],[-70.9276,7.0452],[-70.9252,7.0323],[-70.9193,7.0292],[-70.9204,7.0246],[-70.9356,7.0197],[-70.9402,7.0123],[-70.95,7.0163],[-70.9698,7.0164],[-70.9748,7.0116],[-70.9773,7.0012],[-70.9849,7.0005],[-70.9954,6.9831],[-71.022,6.974],[-71.0414,6.9821],[-71.0671,6.9804],[-71.0721,6.9831],[-71.0773,6.9808],[-71.1117,6.9899],[-71.114,6.9943],[-71.1114,6.9993],[-71.1151,7.0067],[-71.1098,7.0021],[-71.1031,7.0069],[-71.1092,7.0119],[-71.1221,7.012],[-71.1247,7.0161],[-71.1233,7.0236],[-71.13,7.0327],[-71.1443,7.033],[-71.1483,7.0275],[-71.1673,7.0264],[-71.1915,7.019],[-71.2003,7.0252],[-71.2122,7.019],[-71.2279,7.0274],[-71.2333,7.0241],[-71.2409,7.0118],[-71.2493,7.0187],[-71.2586,7.0191],[-71.2645,7.0321],[-71.2832,7.0245],[-71.2983,7.0291],[-71.334,7.0169],[-71.3578,7.0196],[-71.3725,7.0155],[-71.3802,7.0192],[-71.3917,7.0359],[-71.4115,7.0354],[-71.4244,7.0389],[-71.4309,7.0348],[-71.4369,7.0242],[-71.4493,7.0275],[-71.4495,7.0117],[-71.4524,7.0097],[-71.4588,7.0135],[-71.4583,7.0364],[-71.4652,7.0422],[-71.4722,7.0355],[-71.4692,7.0235],[-71.4782,7.0151],[-71.486,7.0165],[-71.4919,7.0314],[-71.4985,7.0363],[-71.512,7.0216],[-71.5379,7.0349],[-71.556,7.0273],[-71.5713,7.0274],[-71.5872,7.0164],[-71.5909,7.0186],[-71.5929,7.0292],[-71.5844,7.043],[-71.584,7.0519],[-71.5877,7.0552],[-71.5919,7.0547],[-71.5954,7.0478],[-71.6167,7.0426],[-71.625,7.0447],[-71.6309,7.0516],[-71.6404,7.0535],[-71.6484,7.0504],[-71.6509,7.0425],[-71.6617,7.0336],[-71.6773,7.0381],[-71.691,7.0378],[-71.7068,7.0326],[-71.7157,7.0363],[-71.7177,7.0539],[-71.7347,7.0579],[-71.7462,7.0657],[-71.8119,7.0624],[-71.8166,7.0574],[-71.8258,7.0556],[-71.8219,7.0371],[-71.8267,7.0302],[-71.835,7.0257],[-71.8471,7.0251],[-71.8517,7.0278],[-71.8643,7.0199],[-71.8709,7.0221],[-71.8778,7.0181],[-71.889,7.0214],[-71.8973,7.0197],[-71.8997,7.0161],[-71.9166,7.0171],[-71.9277,7.0084],[-71.9388,7.0062],[-71.9504,7.0129],[-71.9656,7.0156],[-72.0096,7.0334],[-72.0477,7.0383],[-72.1707,7.2554],[-72.1744,7.2576],[-72.1678,7.2713],[-72.1707,7.2902],[-72.1539,7.3282],[-72.1755,7.3496],[-72.1876,7.3748],[-72.1938,7.3788],[-72.1959,7.3852],[-72.2221,7.3949],[-72.2342,7.39],[-72.2422,7.3904],[-72.2516,7.3795],[-72.2565,7.3784],[-72.2658,7.3836],[-72.2701,7.3818],[-72.2998,7.3907],[-72.3059,7.3884],[-72.3109,7.3808],[-72.3245,7.3759],[-72.3535,7.3962],[-72.3612,7.3941],[-72.372,7.3975]],[[-71.6169,10.6354],[-71.6168,10.6354],[-71.6168,10.6354],[-71.6169,10.6354]],[[-70.2097,11.745],[-70.2097,11.7451],[-70.2098,11.7449],[-70.2097,11.745]],[[-70.2198,11.7785],[-70.2198,11.7786],[-70.2199,11.7786],[-70.2198,11.7785]],[[-68.1355,10.4843],[-68.1367,10.4848],[-68.1369,10.4844],[-68.1355,10.4843]],[[-67.9929,10.4866],[-67.9928,10.4867],[-67.9929,10.4867],[-67.9929,10.4866]],[[-67.0392,10.6018],[-67.0391,10.6016],[-67.0389,10.6015],[-67.0392,10.6018]],[[-66.9818,10.6088],[-66.9821,10.6085],[-66.9821,10.6083],[-66.9818,10.6088]],[[-66.9821,10.6083],[-66.9823,10.6082],[-66.9823,10.6081],[-66.9821,10.6083]],[[-66.8449,10.6191],[-66.8448,10.6191],[-66.8446,10.6192],[-66.8449,10.6191]],[[-66.1246,10.5117],[-66.123,10.5099],[-66.1234,10.511],[-66.1246,10.5117]],[[-66.1248,10.5117],[-66.1247,10.512],[-66.1249,10.5122],[-66.1248,10.5117]],[[-66.1257,10.5132],[-66.125,10.515],[-66.1258,10.5155],[-66.1257,10.5132]],[[-66.1251,10.5154],[-66.125,10.5156],[-66.1251,10.5156],[-66.1251,10.5154]],[[-66.1226,10.5093],[-66.1231,10.5083],[-66.123,10.5081],[-66.1226,10.5093]],[[-66.1194,10.5191],[-66.1195,10.5188],[-66.1193,10.5189],[-66.1194,10.5191]],[[-66.1125,10.5353],[-66.1128,10.5348],[-66.1127,10.5347],[-66.1126,10.5346],[-66.1123,10.535],[-66.1124,10.5345],[-66.1116,10.5356],[-66.1125,10.5353]],[[-66.1104,10.5325],[-66.1104,10.5324],[-66.1102,10.5326],[-66.1104,10.5325]],[[-64.6017,10.2458],[-64.6022,10.2454],[-64.6021,10.2452],[-64.6017,10.2458]],[[-64.6021,10.2451],[-64.602,10.245],[-64.6021,10.2452],[-64.6021,10.2451]],[[-67.6522,10.1352],[-67.6493,10.141],[-67.6535,10.1424],[-67.6505,10.1455],[-67.6414,10.1431],[-67.647,10.134],[-67.6434,10.1226],[-67.6361,10.1227],[-67.6386,10.1198],[-67.6323,10.1114],[-67.625,10.1097],[-67.613,10.115],[-67.6121,10.1429],[-67.6075,10.1451],[-67.6103,10.1535],[-67.6073,10.1582],[-67.6071,10.1721],[-67.6021,10.1776],[-67.6104,10.1986],[-67.6097,10.2105],[-67.6162,10.2166],[-67.6369,10.2223],[-67.6575,10.2341],[-67.657,10.2386],[-67.6633,10.2423],[-67.6712,10.2538],[-67.6752,10.2518],[-67.6725,10.2433],[-67.6796,10.2453],[-67.6813,10.2399],[-67.6878,10.2442],[-67.6911,10.2417],[-67.6911,10.2366],[-67.6947,10.2442],[-67.7163,10.2496],[-67.7083,10.2523],[-67.6995,10.2508],[-67.6867,10.2593],[-67.6925,10.2613],[-67.7313,10.2607],[-67.7482,10.2487],[-67.7525,10.2407],[-67.7565,10.2437],[-67.7731,10.2437],[-67.7819,10.2349],[-67.7858,10.2242],[-67.7914,10.2242],[-67.7911,10.2293],[-67.7936,10.2299],[-67.8184,10.2245],[-67.8396,10.197],[-67.8414,10.1875],[-67.8541,10.1805],[-67.8575,10.1687],[-67.8703,10.1573],[-67.8648,10.1518],[-67.8717,10.1484],[-67.871,10.1409],[-67.8629,10.1357],[-67.8699,10.1312],[-67.8692,10.1236],[-67.8619,10.1153],[-67.8551,10.1134],[-67.8549,10.1092],[-67.8412,10.105],[-67.8224,10.1084],[-67.8009,10.1218],[-67.7629,10.1235],[-67.7573,10.1139],[-67.7477,10.1068],[-67.7291,10.1011],[-67.719,10.1149],[-67.7019,10.1178],[-67.7017,10.1212],[-67.7061,10.1234],[-67.7277,10.1275],[-67.7201,10.1324],[-67.7176,10.1384],[-67.7089,10.1414],[-67.7039,10.1366],[-67.6931,10.1367],[-67.6898,10.133],[-67.6863,10.1337],[-67.6786,10.1229],[-67.6674,10.1304],[-67.6522,10.1352]]],[[[-71.6043,10.9355],[-71.5924,10.9475],[-71.588,10.9436],[-71.5943,10.9184],[-71.6009,10.9097],[-71.5995,10.9264],[-71.6043,10.9355]]],[[[-71.5136,10.9447],[-71.4982,10.941],[-71.4998,10.9338],[-71.5095,10.9348],[-71.5157,10.9399],[-71.5136,10.9447]]],[[[-71.6304,10.9525],[-71.6648,10.9511],[-71.6747,10.9537],[-71.6822,10.9608],[-71.6743,10.9594],[-71.6628,10.9644],[-71.6257,10.9567],[-71.6304,10.9525]]],[[[-71.5328,10.9497],[-71.5441,10.9479],[-71.5472,10.9558],[-71.5442,10.9597],[-71.5481,10.9634],[-71.5546,10.9625],[-71.5638,10.9713],[-71.5742,10.9722],[-71.5822,10.9832],[-71.5907,10.9806],[-71.5938,10.9842],[-71.5915,10.9861],[-71.5954,10.9886],[-71.5883,10.9899],[-71.5863,10.9933],[-71.5427,10.971],[-71.538,10.956],[-71.5328,10.9497]]],[[[-71.6051,10.9591],[-71.6069,10.956],[-71.6156,10.9664],[-71.6296,10.9679],[-71.6224,10.9911],[-71.6184,10.9901],[-71.6169,10.9833],[-71.6102,10.9818],[-71.6059,10.9769],[-71.615,10.9788],[-71.6051,10.9591]]],[[[-66.7355,11.7783],[-66.7222,11.7737],[-66.7433,11.774],[-66.7874,11.7476],[-66.8043,11.742],[-66.8445,11.7353],[-66.8576,11.7458],[-66.8557,11.7484],[-66.842,11.7392],[-66.804,11.7435],[-66.7888,11.7486],[-66.7878,11.7522],[-66.7834,11.7518],[-66.7769,11.7585],[-66.7654,11.7619],[-66.7459,11.7749],[-66.7355,11.7783]]],[[[-66.6052,11.8265],[-66.6122,11.8186],[-66.6076,11.8068],[-66.6075,11.7936],[-66.5993,11.8025],[-66.5986,11.8156],[-66.5905,11.8177],[-66.5875,11.8075],[-66.591,11.7953],[-66.5947,11.7937],[-66.5907,11.7988],[-66.5965,11.799],[-66.5982,11.7761],[-66.6024,11.7733],[-66.6052,11.7757],[-66.6,11.7861],[-66.6099,11.7772],[-66.6096,11.7671],[-66.6044,11.7657],[-66.5946,11.7695],[-66.5916,11.7766],[-66.5868,11.7716],[-66.5826,11.7756],[-66.5863,11.7702],[-66.6119,11.7591],[-66.6502,11.7586],[-66.6699,11.7523],[-66.7059,11.7669],[-66.6756,11.7571],[-66.6427,11.7637],[-66.637,11.7715],[-66.6291,11.7755],[-66.6264,11.7894],[-66.618,11.7899],[-66.6175,11.7967],[-66.6136,11.7987],[-66.6208,11.8097],[-66.6214,11.8218],[-66.6052,11.8265]]],[[[-66.6096,11.8438],[-66.6163,11.8446],[-66.6165,11.8626],[-66.6142,11.8644],[-66.609,11.8614],[-66.6035,11.8517],[-66.6096,11.8438]]],[[[-66.7103,11.8629],[-66.7132,11.8575],[-66.7147,11.8625],[-66.7383,11.8596],[-66.7467,11.8611],[-66.7507,11.8542],[-66.759,11.8545],[-66.7599,11.8585],[-66.7708,11.8606],[-66.7285,11.8619],[-66.7141,11.8658],[-66.7103,11.8629]]],[[[-66.8217,11.8664],[-66.7918,11.865],[-66.772,11.861],[-66.7787,11.8583],[-66.7941,11.8636],[-66.8067,11.8623],[-66.8185,11.8654],[-66.8218,11.8625],[-66.8224,11.8646],[-66.8217,11.8664]]],[[[-66.6846,11.8755],[-66.6838,11.8619],[-66.6914,11.8582],[-66.6895,11.8678],[-66.6958,11.873],[-66.6846,11.8755]]],[[[-66.6541,11.8937],[-66.6452,11.8931],[-66.6341,11.8887],[-66.6119,11.8679],[-66.6046,11.8646],[-66.6018,11.8577],[-66.6102,11.8651],[-66.6187,11.8645],[-66.6364,11.8828],[-66.6431,11.8841],[-66.6482,11.8801],[-66.6478,11.8895],[-66.6541,11.8937]]],[[[-66.8019,11.8894],[-66.7882,11.8847],[-66.7735,11.8869],[-66.7708,11.8816],[-66.7913,11.8804],[-66.8019,11.8894]]],[[[-66.6147,11.9508],[-66.5911,11.9144],[-66.5923,11.9118],[-66.6009,11.9142],[-66.5962,11.9177],[-66.6155,11.9387],[-66.6171,11.9449],[-66.6322,11.953],[-66.6343,11.9439],[-66.6374,11.9559],[-66.6274,11.9575],[-66.6147,11.9508]]],[[[-66.6962,11.9583],[-66.6646,11.9528],[-66.6635,11.9504],[-66.666,11.9464],[-66.674,11.9443],[-66.6962,11.9583]]],[[[-64.9119,10.1464],[-64.9291,10.1437],[-64.934,10.1517],[-64.943,10.1528],[-64.927,10.1561],[-64.9119,10.1464]]],[[[-64.9414,10.1621],[-64.9686,10.1603],[-64.9772,10.1647],[-64.9679,10.1692],[-64.9537,10.1689],[-64.943,10.1658],[-64.9414,10.1621]]],[[[-64.6293,10.2668],[-64.6344,10.2577],[-64.6421,10.2555],[-64.6432,10.259],[-64.6376,10.2596],[-64.6344,10.2644],[-64.6398,10.2686],[-64.628,10.2742],[-64.6145,10.2755],[-64.6176,10.2687],[-64.6286,10.2647],[-64.6293,10.2668]]],[[[-64.6281,10.289],[-64.6092,10.2854],[-64.6116,10.2798],[-64.6202,10.2798],[-64.6223,10.2826],[-64.6278,10.2791],[-64.6297,10.2812],[-64.6261,10.2849],[-64.6373,10.2853],[-64.6385,10.2882],[-64.6434,10.2843],[-64.6498,10.2871],[-64.6501,10.2907],[-64.659,10.2924],[-64.6603,10.287],[-64.6722,10.2844],[-64.6753,10.2863],[-64.6645,10.2927],[-64.6682,10.2999],[-64.6572,10.3029],[-64.6457,10.3004],[-64.634,10.3039],[-64.6286,10.2972],[-64.6218,10.2957],[-64.6281,10.289]]],[[[-64.7359,10.2766],[-64.7435,10.271],[-64.7442,10.2762],[-64.7529,10.2852],[-64.7588,10.2844],[-64.763,10.2887],[-64.7624,10.2909],[-64.7576,10.2879],[-64.7566,10.2948],[-64.7505,10.2978],[-64.7431,10.3118],[-64.7391,10.3124],[-64.7321,10.311],[-64.7282,10.306],[-64.7359,10.2766]]],[[[-65.3087,10.9789],[-65.2793,10.9589],[-65.2497,10.946],[-65.2297,10.9449],[-65.2252,10.9493],[-65.2283,10.9566],[-65.2231,10.9567],[-65.2198,10.9534],[-65.2257,10.956],[-65.2235,10.9364],[-65.2023,10.9153],[-65.2061,10.9132],[-65.2038,10.9036],[-65.2065,10.9052],[-65.2088,10.9026],[-65.2056,10.8984],[-65.2034,10.903],[-65.1984,10.9032],[-65.2029,10.8961],[-65.225,10.897],[-65.2477,10.8901],[-65.2488,10.8921],[-65.2322,10.8974],[-65.2455,10.8973],[-65.2554,10.8895],[-65.304,10.8833],[-65.311,10.8844],[-65.3178,10.8913],[-65.3279,10.8911],[-65.3554,10.9024],[-65.3621,10.9019],[-65.3683,10.9104],[-65.3798,10.9096],[-65.3866,10.9133],[-65.3937,10.9106],[-65.408,10.9188],[-65.4234,10.9158],[-65.4202,10.9282],[-65.4108,10.9328],[-65.4106,10.9363],[-65.3978,10.9456],[-65.3932,10.9531],[-65.3752,10.9618],[-65.3673,10.9699],[-65.349,10.9698],[-65.3442,10.9753],[-65.3137,10.9714],[-65.3087,10.9789]]],[[[-66.1038,11.8197],[-66.0997,11.8056],[-66.1023,11.7959],[-66.1225,11.7684],[-66.1467,11.7693],[-66.1934,11.7994],[-66.2051,11.8119],[-66.2009,11.8147],[-66.1606,11.8151],[-66.117,11.8237],[-66.1038,11.8197]]],[[[-66.5793,11.8941],[-66.5633,11.8687],[-66.5607,11.8557],[-66.562,11.8288],[-66.5686,11.7992],[-66.5793,11.779],[-66.5772,11.7871],[-66.5801,11.7894],[-66.5765,11.79],[-66.5724,11.7983],[-66.5739,11.8058],[-66.5653,11.8302],[-66.5668,11.8534],[-66.5639,11.8604],[-66.5669,11.8651],[-66.5671,11.8443],[-66.5702,11.8578],[-66.5674,11.8683],[-66.5714,11.872],[-66.574,11.8824],[-66.5771,11.8819],[-66.5746,11.8854],[-66.5796,11.8901],[-66.5793,11.8941]]],[[[-66.0941,11.8669],[-66.0903,11.8514],[-66.1024,11.8251],[-66.1126,11.8291],[-66.1061,11.8379],[-66.0995,11.8373],[-66.0966,11.8402],[-66.0922,11.8538],[-66.1004,11.8585],[-66.0999,11.8639],[-66.1032,11.868],[-66.0996,11.8704],[-66.0941,11.8669]]],[[[-64.6233,11.8136],[-64.6427,11.8259],[-64.647,11.8445],[-64.6403,11.8532],[-64.6328,11.8568],[-64.6215,11.8768],[-64.6169,11.8918],[-64.6055,11.8934],[-64.5797,11.8781],[-64.5616,11.8561],[-64.5555,11.8357],[-64.5573,11.8235],[-64.5738,11.8073],[-64.5871,11.8075],[-64.6032,11.8143],[-64.6233,11.8136]]],[[[-64.5413,10.2567],[-64.5529,10.2598],[-64.5535,10.2637],[-64.55,10.2662],[-64.5532,10.2696],[-64.5513,10.2734],[-64.5461,10.2742],[-64.5389,10.2678],[-64.5424,10.2614],[-64.5413,10.2567]]],[[[-64.3944,10.3686],[-64.3986,10.366],[-64.3993,10.3599],[-64.3942,10.3595],[-64.3951,10.3573],[-64.4136,10.3481],[-64.4084,10.3582],[-64.4025,10.3597],[-64.4036,10.3735],[-64.3944,10.3686]]],[[[-64.4498,10.3649],[-64.443,10.3689],[-64.444,10.3609],[-64.439,10.3612],[-64.442,10.3538],[-64.4318,10.3541],[-64.427,10.3506],[-64.4396,10.3498],[-64.4471,10.3581],[-64.4704,10.3641],[-64.4638,10.3665],[-64.4592,10.3763],[-64.4519,10.3708],[-64.4498,10.3649]]],[[[-64.4276,10.3813],[-64.4119,10.3757],[-64.4175,10.3679],[-64.4125,10.3674],[-64.412,10.3645],[-64.4326,10.3575],[-64.4331,10.3628],[-64.4366,10.3643],[-64.4366,10.3717],[-64.4283,10.3729],[-64.4276,10.3813]]],[[[-63.9785,10.8065],[-63.9597,10.7973],[-63.9164,10.7899],[-63.8936,10.7568],[-63.8973,10.7354],[-63.9238,10.7305],[-63.9333,10.7341],[-63.9368,10.7404],[-63.9631,10.7496],[-63.9466,10.7475],[-63.9527,10.7599],[-63.9564,10.7609],[-63.9569,10.7569],[-63.9629,10.7632],[-63.9824,10.7645],[-64.0034,10.7737],[-64.0054,10.777],[-63.9933,10.786],[-63.9922,10.7936],[-63.9997,10.8107],[-63.9886,10.8054],[-63.9785,10.8065]]],[[[-64.2003,10.7948],[-64.221,10.794],[-64.2206,10.7981],[-64.2304,10.814],[-64.2157,10.8261],[-64.2053,10.824],[-64.2006,10.8275],[-64.1898,10.8273],[-64.1691,10.8199],[-64.1605,10.8352],[-64.1537,10.8214],[-64.1456,10.8182],[-64.1488,10.811],[-64.155,10.8076],[-64.1562,10.8013],[-64.1875,10.7956],[-64.1951,10.7977],[-64.2003,10.7948]]],[[[-63.9684,11.1131],[-63.9487,11.1117],[-63.9467,11.1161],[-63.9325,11.1187],[-63.9337,11.1264],[-63.9284,11.1238],[-63.9232,11.1256],[-63.9211,11.1324],[-63.9136,11.1357],[-63.9127,11.1401],[-63.9065,11.1439],[-63.9055,11.1537],[-63.8922,11.1578],[-63.8894,11.1731],[-63.879,11.1797],[-63.8805,11.1726],[-63.8724,11.1563],[-63.84,11.1266],[-63.8438,11.1242],[-63.8425,11.1092],[-63.8176,11.0566],[-63.8006,11.0315],[-63.8001,11.023],[-63.7938,11.0195],[-63.7998,11.0296],[-63.7764,10.9985],[-63.781,10.994],[-63.7892,10.9951],[-63.792,10.9988],[-63.7981,10.9972],[-63.8036,10.9811],[-63.8168,10.9801],[-63.8189,10.9663],[-63.8164,10.9446],[-63.817,10.9475],[-63.823,10.9461],[-63.8242,10.9505],[-63.8285,10.9516],[-63.8283,10.956],[-63.8352,10.9584],[-63.8453,10.9534],[-63.8476,10.9497],[-63.8495,10.9479],[-63.8481,10.9499],[-63.8516,10.9512],[-63.8564,10.9497],[-63.8611,10.9449],[-63.8693,10.9457],[-63.8799,10.938],[-63.8855,10.9278],[-63.8891,10.9026],[-63.8875,10.8917],[-63.8961,10.8829],[-63.9028,10.8834],[-63.9043,10.8874],[-63.9139,10.8859],[-63.9384,10.894],[-63.9329,10.8953],[-63.9356,10.9021],[-63.9403,10.9019],[-63.9405,10.9071],[-63.9359,10.9116],[-63.9168,10.9032],[-63.9,10.9131],[-63.9101,10.918],[-63.92,10.9139],[-63.921,10.917],[-63.928,10.9172],[-63.9213,10.9247],[-63.9366,10.9245],[-63.937,10.9279],[-63.9409,10.9275],[-63.9415,10.936],[-63.9458,10.937],[-63.9537,10.9309],[-63.953,10.9241],[-63.9564,10.9218],[-63.9474,10.9185],[-63.9425,10.9111],[-63.9524,10.9047],[-63.9435,10.9024],[-63.9567,10.898],[-63.9693,10.8998],[-63.9794,10.8957],[-63.9729,10.8987],[-63.9751,10.9001],[-63.9891,10.8944],[-63.9963,10.8826],[-64.0081,10.8746],[-64.0143,10.872],[-64.0261,10.8743],[-64.0507,10.8635],[-64.039,10.8692],[-64.0486,10.8726],[-64.0507,10.8694],[-64.0438,10.8682],[-64.0635,10.8606],[-64.0636,10.8653],[-64.0538,10.871],[-64.0589,10.8865],[-64.0742,10.8979],[-64.0809,10.8952],[-64.0953,10.8985],[-64.0964,10.896],[-64.0958,10.8986],[-64.0999,10.8978],[-64.0994,10.9001],[-64.1053,10.8978],[-64.1085,10.9017],[-64.1107,10.9005],[-64.1095,10.904],[-64.1005,10.9035],[-64.0989,10.9087],[-64.0955,10.9071],[-64.0959,10.9038],[-64.1002,10.9031],[-64.1042,10.9012],[-64.0913,10.9033],[-64.0925,10.9098],[-64.1029,10.9095],[-64.1117,10.9045],[-64.1158,10.9219],[-64.1098,10.9244],[-64.1135,10.9267],[-64.1173,10.922],[-64.1203,10.9295],[-64.1392,10.9474],[-64.1391,10.9517],[-64.1416,10.9499],[-64.14,10.9478],[-64.1467,10.9527],[-64.1452,10.9555],[-64.1384,10.9521],[-64.1347,10.9455],[-64.1292,10.9453],[-64.1435,10.956],[-64.1437,10.9607],[-64.1473,10.9535],[-64.1533,10.959],[-64.1576,10.9602],[-64.1585,10.957],[-64.1587,10.9598],[-64.1639,10.961],[-64.159,10.965],[-64.1651,10.9647],[-64.1631,10.9695],[-64.1672,10.9644],[-64.1658,10.9618],[-64.168,10.9633],[-64.1704,10.9687],[-64.1682,10.9669],[-64.1695,10.9736],[-64.1669,10.9777],[-64.1742,10.9736],[-64.1733,10.9702],[-64.1805,10.9646],[-64.1796,10.9574],[-64.1855,10.9487],[-64.1969,10.9393],[-64.2044,10.9398],[-64.2096,10.9345],[-64.2312,10.9417],[-64.2424,10.9394],[-64.2824,10.9459],[-64.2939,10.9447],[-64.316,10.9568],[-64.3336,10.958],[-64.3391,10.9554],[-64.356,10.9624],[-64.3678,10.9616],[-64.3746,10.9657],[-64.3924,10.9686],[-64.4019,10.9741],[-64.4096,10.9718],[-64.405,10.9858],[-64.3825,11.0049],[-64.376,11.0252],[-64.3773,11.0309],[-64.3831,11.0306],[-64.3831,11.0435],[-64.3607,11.0531],[-64.347,11.0499],[-64.3355,11.057],[-64.3151,11.0584],[-64.3122,11.0647],[-64.2995,11.0651],[-64.2981,11.0718],[-64.2699,11.0627],[-64.2639,11.0679],[-64.2481,11.0676],[-64.2447,11.0734],[-64.2257,11.0775],[-64.2151,11.086],[-64.1947,11.0835],[-64.1964,11.0655],[-64.2051,11.0521],[-64.1897,11.0338],[-64.1563,11.0077],[-64.1339,10.9954],[-64.0988,10.9854],[-64.0712,10.9823],[-64.0446,10.9853],[-64.0325,10.9908],[-64.022,11.0011],[-64.023,11.0198],[-64.0142,11.032],[-64.0159,11.0502],[-64.0124,11.0684],[-63.9938,11.0686],[-63.9728,11.0795],[-63.973,11.0856],[-63.9789,11.0858],[-63.9759,11.0948],[-63.9811,11.0951],[-63.9823,11.0991],[-63.9769,11.1099],[-63.9762,11.1105],[-63.9709,11.11],[-63.9684,11.1131]],[[-63.9761,11.1103],[-63.976,11.1101],[-63.9761,11.1103],[-63.9761,11.1103]]],[[[-63.1423,11.3764],[-63.1402,11.38],[-63.1155,11.3832],[-63.1174,11.3676],[-63.106,11.3584],[-63.1109,11.3496],[-63.1181,11.3589],[-63.1325,11.3655],[-63.1423,11.3764]]]]}}